{
"type": "FeatureCollection",
"name": "separated-municipalities.web",
"crs": { "type": "name", "properties": { "name": "urn:ogc:def:crs:OGC:1.3:CRS84" } },
"xy_coordinate_resolution": 1e-05,
"features": [
{ "type": "Feature", "properties": { "fid": 13, "ASSESSMENT": "0402", "MUNICIPALITY": "CITY OF CORNWALL", "TIER": "ST", "UT_NUMBER": "71", "UT_ID": "0100", "UT_Name": "Stormont, Dundas and Glengarry UCo", "Separated": 1.0, "Geographic_County": "United Counties of Stormont, Dundas and Glengarry" }, "geometry": { "type": "MultiPolygon", "coordinates": [ [ [ [ -74.79049, 45.00926 ], [ -74.7917, 45.01163 ], [ -74.79193, 45.01685 ], [ -74.7896, 45.02038 ], [ -74.78956, 45.02423 ], [ -74.79185, 45.02691 ], [ -74.79696, 45.02717 ], [ -74.80511, 45.02445 ], [ -74.81404, 45.02472 ], [ -74.81624, 45.02551 ], [ -74.82044, 45.02894 ], [ -74.82609, 45.02944 ], [ -74.83126, 45.03229 ], [ -74.83335, 45.03209 ], [ -74.83354, 45.03034 ], [ -74.83516, 45.03186 ], [ -74.83695, 45.0315 ], [ -74.83561, 45.03217 ], [ -74.83777, 45.0325 ], [ -74.83749, 45.03177 ], [ -74.83973, 45.03058 ], [ -74.84146, 45.03128 ], [ -74.84296, 45.03025 ], [ -74.84678, 45.03127 ], [ -74.84892, 45.0339 ], [ -74.84071, 45.035 ], [ -74.83516, 45.03435 ], [ -74.82092, 45.0395 ], [ -74.70928, 45.08543 ], [ -74.66508, 45.03204 ], [ -74.67325, 45.02819 ], [ -74.68133, 45.02609 ], [ -74.68531, 45.02305 ], [ -74.69397, 45.02016 ], [ -74.69898, 45.01682 ], [ -74.70059, 45.01779 ], [ -74.70211, 45.01786 ], [ -74.69944, 45.0165 ], [ -74.70023, 45.01594 ], [ -74.70311, 45.0158 ], [ -74.70682, 45.01669 ], [ -74.70911, 45.01568 ], [ -74.70903, 45.0151 ], [ -74.71377, 45.014 ], [ -74.71335, 45.01359 ], [ -74.71708, 45.01339 ], [ -74.72049, 45.01455 ], [ -74.72071, 45.01383 ], [ -74.71834, 45.01335 ], [ -74.73193, 45.01264 ], [ -74.73062, 45.01227 ], [ -74.73643, 45.00944 ], [ -74.74017, 45.00952 ], [ -74.74363, 45.01055 ], [ -74.75014, 45.01039 ], [ -74.76201, 45.00791 ], [ -74.76651, 45.00803 ], [ -74.76894, 45.00896 ], [ -74.77671, 45.0089 ], [ -74.7783, 45.00868 ], [ -74.77736, 45.00843 ], [ -74.77829, 45.0079 ], [ -74.78317, 45.00769 ], [ -74.79005, 45.00882 ], [ -74.79462, 45.00631 ], [ -74.79507, 45.00673 ], [ -74.79049, 45.00926 ] ] ], [ [ [ -74.66867, 45.0276 ], [ -74.66851, 45.02769 ], [ -74.66853, 45.02767 ], [ -74.66867, 45.0276 ] ] ], [ [ [ -74.66926, 45.02355 ], [ -74.66943, 45.02348 ], [ -74.66947, 45.02348 ], [ -74.66926, 45.02355 ] ] ], [ [ [ -74.66902, 45.02363 ], [ -74.66918, 45.02356 ], [ -74.66907, 45.02362 ], [ -74.66902, 45.02363 ] ] ], [ [ [ -74.66689, 45.02374 ], [ -74.66714, 45.02372 ], [ -74.66737, 45.02371 ], [ -74.66689, 45.02374 ] ] ], [ [ [ -74.66578, 45.02354 ], [ -74.66549, 45.02351 ], [ -74.66575, 45.02353 ], [ -74.66578, 45.02354 ] ] ], [ [ [ -74.66454, 45.02357 ], [ -74.66442, 45.02354 ], [ -74.66498, 45.02355 ], [ -74.66454, 45.02357 ] ] ], [ [ [ -74.66374, 45.02354 ], [ -74.66365, 45.02355 ], [ -74.66316, 45.02355 ], [ -74.66374, 45.02354 ] ] ], [ [ [ -74.66303, 45.02371 ], [ -74.66279, 45.02376 ], [ -74.66316, 45.02355 ], [ -74.66303, 45.02371 ] ] ], [ [ [ -74.6619, 45.02458 ], [ -74.66167, 45.02461 ], [ -74.66159, 45.02461 ], [ -74.66153, 45.0246 ], [ -74.66149, 45.02458 ], [ -74.6619, 45.02458 ] ] ], [ [ [ -74.6613, 45.02478 ], [ -74.66133, 45.02484 ], [ -74.66121, 45.02468 ], [ -74.66119, 45.02461 ], [ -74.6613, 45.02478 ] ] ], [ [ [ -74.66158, 45.02624 ], [ -74.66153, 45.02596 ], [ -74.66157, 45.02611 ], [ -74.66158, 45.02624 ] ] ], [ [ [ -74.66444, 45.0289 ], [ -74.66415, 45.02879 ], [ -74.66375, 45.02859 ], [ -74.66444, 45.0289 ] ] ], [ [ [ -74.65968, 45.0195 ], [ -74.65955, 45.01948 ], [ -74.65942, 45.01926 ], [ -74.65968, 45.0195 ] ] ], [ [ [ -74.65967, 45.01887 ], [ -74.65963, 45.01883 ], [ -74.65965, 45.01883 ], [ -74.65967, 45.01887 ] ] ], [ [ [ -74.69064, 45.01415 ], [ -74.69123, 45.01438 ], [ -74.6915, 45.01455 ], [ -74.69064, 45.01415 ] ] ], [ [ [ -74.69984, 45.01062 ], [ -74.69991, 45.01065 ], [ -74.70006, 45.01073 ], [ -74.70038, 45.01098 ], [ -74.70038, 45.01104 ], [ -74.69984, 45.01062 ] ] ], [ [ [ -74.70185, 45.01098 ], [ -74.70237, 45.01104 ], [ -74.70256, 45.0111 ], [ -74.70277, 45.01123 ], [ -74.70185, 45.01098 ] ] ], [ [ [ -74.70281, 45.0113 ], [ -74.70321, 45.01163 ], [ -74.70293, 45.01143 ], [ -74.70281, 45.0113 ] ] ], [ [ [ -74.70366, 45.01185 ], [ -74.70388, 45.01185 ], [ -74.70404, 45.01191 ], [ -74.70481, 45.0126 ], [ -74.70366, 45.01185 ] ] ], [ [ [ -74.71412, 45.00898 ], [ -74.71396, 45.00895 ], [ -74.71441, 45.00896 ], [ -74.71412, 45.00898 ] ] ], [ [ [ -74.71869, 45.00704 ], [ -74.71886, 45.00714 ], [ -74.71851, 45.00698 ], [ -74.71869, 45.00704 ] ] ], [ [ [ -74.71924, 45.00728 ], [ -74.71924, 45.00729 ], [ -74.71918, 45.00723 ], [ -74.71924, 45.00728 ] ] ], [ [ [ -74.71888, 45.00752 ], [ -74.71903, 45.00741 ], [ -74.71913, 45.00737 ], [ -74.71888, 45.00752 ] ] ], [ [ [ -74.71831, 45.00805 ], [ -74.71826, 45.00809 ], [ -74.71803, 45.00829 ], [ -74.71849, 45.00784 ], [ -74.71831, 45.00805 ] ] ], [ [ [ -74.71698, 45.00888 ], [ -74.71708, 45.00882 ], [ -74.71722, 45.0088 ], [ -74.71698, 45.00888 ] ] ], [ [ [ -74.71838, 45.00959 ], [ -74.71861, 45.00962 ], [ -74.71881, 45.00969 ], [ -74.71903, 45.00971 ], [ -74.71927, 45.00974 ], [ -74.71942, 45.00978 ], [ -74.71989, 45.00993 ], [ -74.72035, 45.01001 ], [ -74.72159, 45.0104 ], [ -74.71838, 45.00959 ] ] ], [ [ [ -74.72894, 45.00898 ], [ -74.72914, 45.00892 ], [ -74.72871, 45.00907 ], [ -74.72894, 45.00898 ] ] ], [ [ [ -74.74202, 45.0073 ], [ -74.74228, 45.00735 ], [ -74.74119, 45.00717 ], [ -74.74202, 45.0073 ] ] ], [ [ [ -74.74363, 45.00761 ], [ -74.74334, 45.00755 ], [ -74.74386, 45.00764 ], [ -74.74363, 45.00761 ] ] ], [ [ [ -74.74644, 45.00703 ], [ -74.74667, 45.00715 ], [ -74.74673, 45.0072 ], [ -74.74644, 45.00703 ] ] ], [ [ [ -74.74683, 45.00731 ], [ -74.74691, 45.00749 ], [ -74.74673, 45.0072 ], [ -74.74683, 45.00731 ] ] ], [ [ [ -74.74768, 45.00798 ], [ -74.74788, 45.00811 ], [ -74.74796, 45.00816 ], [ -74.74732, 45.00783 ], [ -74.74768, 45.00798 ] ] ], [ [ [ -74.74835, 45.00834 ], [ -74.74824, 45.00833 ], [ -74.74805, 45.00828 ], [ -74.74835, 45.00834 ] ] ], [ [ [ -74.75849, 44.99545 ], [ -74.75829, 44.9955 ], [ -74.7584, 44.99545 ], [ -74.75849, 44.99545 ] ] ], [ [ [ -74.75805, 44.99574 ], [ -74.7572, 44.99597 ], [ -74.75712, 44.99599 ], [ -74.75703, 44.99601 ], [ -74.75694, 44.99601 ], [ -74.75805, 44.99574 ] ] ], [ [ [ -74.75678, 44.996 ], [ -74.75662, 44.99603 ], [ -74.75669, 44.99601 ], [ -74.75678, 44.996 ] ] ], [ [ [ -74.75628, 44.99618 ], [ -74.7561, 44.99627 ], [ -74.75577, 44.99639 ], [ -74.75534, 44.99649 ], [ -74.75505, 44.99655 ], [ -74.75499, 44.99656 ], [ -74.75444, 44.99662 ], [ -74.75434, 44.99663 ], [ -74.7543, 44.99662 ], [ -74.75628, 44.99618 ] ] ], [ [ [ -74.75296, 44.99567 ], [ -74.75309, 44.99565 ], [ -74.75316, 44.99565 ], [ -74.75296, 44.99567 ] ] ], [ [ [ -74.75217, 44.9956 ], [ -74.75243, 44.99557 ], [ -74.75224, 44.9956 ], [ -74.75217, 44.9956 ] ] ], [ [ [ -74.75033, 44.99447 ], [ -74.75066, 44.99451 ], [ -74.75045, 44.9945 ], [ -74.75033, 44.99447 ] ] ], [ [ [ -74.74982, 44.99459 ], [ -74.74958, 44.99466 ], [ -74.74996, 44.99449 ], [ -74.75009, 44.99446 ], [ -74.75016, 44.99445 ], [ -74.74982, 44.99459 ] ] ], [ [ [ -74.74637, 44.9937 ], [ -74.7466, 44.99362 ], [ -74.74677, 44.99362 ], [ -74.74637, 44.9937 ] ] ], [ [ [ -74.74243, 44.99177 ], [ -74.74279, 44.99175 ], [ -74.74251, 44.99177 ], [ -74.74243, 44.99177 ] ] ], [ [ [ -74.73815, 44.99204 ], [ -74.73811, 44.99204 ], [ -74.73837, 44.99199 ], [ -74.73815, 44.99204 ] ] ], [ [ [ -74.73495, 44.99245 ], [ -74.73511, 44.99241 ], [ -74.73518, 44.9924 ], [ -74.73495, 44.99245 ] ] ], [ [ [ -74.73392, 44.99276 ], [ -74.73321, 44.99289 ], [ -74.73434, 44.99267 ], [ -74.73392, 44.99276 ] ] ], [ [ [ -74.73014, 44.99403 ], [ -74.73037, 44.99396 ], [ -74.72991, 44.99414 ], [ -74.73014, 44.99403 ] ] ], [ [ [ -74.7257, 44.99708 ], [ -74.72596, 44.9968 ], [ -74.72584, 44.99694 ], [ -74.7257, 44.99708 ] ] ], [ [ [ -74.72505, 44.99759 ], [ -74.72481, 44.9978 ], [ -74.72433, 44.99819 ], [ -74.7242, 44.99828 ], [ -74.72412, 44.99831 ], [ -74.72505, 44.99759 ] ] ], [ [ [ -74.72291, 44.99902 ], [ -74.72177, 44.99963 ], [ -74.72361, 44.99859 ], [ -74.72291, 44.99902 ] ] ], [ [ [ -74.72117, 44.99992 ], [ -74.72093, 45.0 ], [ -74.72069, 45.00008 ], [ -74.72157, 44.99973 ], [ -74.72117, 44.99992 ] ] ], [ [ [ -74.72052, 45.00013 ], [ -74.72028, 45.0002 ], [ -74.71998, 45.00026 ], [ -74.72069, 45.00008 ], [ -74.72052, 45.00013 ] ] ], [ [ [ -74.71901, 45.00057 ], [ -74.71895, 45.0006 ], [ -74.71862, 45.00072 ], [ -74.71901, 45.00057 ] ] ], [ [ [ -74.7183, 45.00092 ], [ -74.71695, 45.00128 ], [ -74.71851, 45.0008 ], [ -74.7183, 45.00092 ] ] ], [ [ [ -74.71604, 45.00155 ], [ -74.71629, 45.00147 ], [ -74.71675, 45.00134 ], [ -74.71604, 45.00155 ] ] ], [ [ [ -74.71449, 45.00197 ], [ -74.71498, 45.00185 ], [ -74.71522, 45.00177 ], [ -74.7155, 45.00171 ], [ -74.71372, 45.00224 ], [ -74.71449, 45.00197 ] ] ], [ [ [ -74.71128, 45.0034 ], [ -74.71118, 45.0034 ], [ -74.711, 45.00337 ], [ -74.71128, 45.0034 ] ] ], [ [ [ -74.70854, 45.00414 ], [ -74.70809, 45.00438 ], [ -74.70726, 45.00469 ], [ -74.70854, 45.00414 ] ] ], [ [ [ -74.70688, 45.00493 ], [ -74.7072, 45.00475 ], [ -74.70706, 45.00484 ], [ -74.70688, 45.00493 ] ] ], [ [ [ -74.70658, 45.00503 ], [ -74.70639, 45.00504 ], [ -74.70679, 45.00497 ], [ -74.70658, 45.00503 ] ] ], [ [ [ -74.70626, 45.00511 ], [ -74.7061, 45.00515 ], [ -74.70639, 45.00504 ], [ -74.70626, 45.00511 ] ] ], [ [ [ -74.70599, 45.00517 ], [ -74.70581, 45.00517 ], [ -74.7061, 45.00515 ], [ -74.70599, 45.00517 ] ] ], [ [ [ -74.70184, 45.00429 ], [ -74.70216, 45.00398 ], [ -74.70203, 45.00417 ], [ -74.70184, 45.00429 ] ] ], [ [ [ -74.70106, 45.00469 ], [ -74.70034, 45.00491 ], [ -74.7002, 45.00491 ], [ -74.70106, 45.00469 ] ] ], [ [ [ -74.69772, 45.00454 ], [ -74.69747, 45.00461 ], [ -74.6972, 45.00464 ], [ -74.69692, 45.00464 ], [ -74.69772, 45.00454 ] ] ], [ [ [ -74.6946, 45.00468 ], [ -74.69488, 45.00464 ], [ -74.69507, 45.00462 ], [ -74.6946, 45.00468 ] ] ], [ [ [ -74.69067, 45.00421 ], [ -74.69061, 45.00423 ], [ -74.69096, 45.00406 ], [ -74.69067, 45.00421 ] ] ], [ [ [ -74.68842, 45.00286 ], [ -74.6886, 45.00282 ], [ -74.68844, 45.00287 ], [ -74.68842, 45.00286 ] ] ], [ [ [ -74.68359, 45.00078 ], [ -74.68407, 45.00078 ], [ -74.68424, 45.00079 ], [ -74.68359, 45.00078 ] ] ], [ [ [ -74.68292, 45.00088 ], [ -74.68281, 45.00089 ], [ -74.68322, 45.00082 ], [ -74.68338, 45.0008 ], [ -74.68292, 45.00088 ] ] ], [ [ [ -74.68201, 45.00116 ], [ -74.68182, 45.0012 ], [ -74.68139, 45.00122 ], [ -74.68201, 45.00116 ] ] ], [ [ [ -74.68043, 45.00161 ], [ -74.6793, 45.00185 ], [ -74.67918, 45.00186 ], [ -74.68043, 45.00161 ] ] ], [ [ [ -74.67857, 45.00197 ], [ -74.67886, 45.00189 ], [ -74.67891, 45.00189 ], [ -74.67857, 45.00197 ] ] ], [ [ [ -74.67798, 45.00208 ], [ -74.67781, 45.0021 ], [ -74.67788, 45.00208 ], [ -74.67798, 45.00208 ] ] ], [ [ [ -74.67727, 45.00235 ], [ -74.6772, 45.00235 ], [ -74.67738, 45.00232 ], [ -74.67727, 45.00235 ] ] ], [ [ [ -74.6737, 45.00463 ], [ -74.67387, 45.00439 ], [ -74.67386, 45.00446 ], [ -74.6737, 45.00463 ] ] ], [ [ [ -74.67356, 45.00495 ], [ -74.67361, 45.0048 ], [ -74.67368, 45.00467 ], [ -74.67356, 45.00495 ] ] ], [ [ [ -74.67339, 45.00528 ], [ -74.67346, 45.0051 ], [ -74.67356, 45.00495 ], [ -74.67339, 45.00528 ] ] ], [ [ [ -74.67297, 45.00616 ], [ -74.673, 45.00596 ], [ -74.67304, 45.00588 ], [ -74.67308, 45.00582 ], [ -74.67297, 45.00616 ] ] ], [ [ [ -74.67272, 45.00651 ], [ -74.67266, 45.00677 ], [ -74.67269, 45.00659 ], [ -74.67272, 45.00651 ] ] ], [ [ [ -74.67251, 45.00708 ], [ -74.67221, 45.00745 ], [ -74.67266, 45.00678 ], [ -74.67251, 45.00708 ] ] ], [ [ [ -74.67182, 45.00782 ], [ -74.67175, 45.00797 ], [ -74.67165, 45.00814 ], [ -74.67182, 45.00782 ] ] ], [ [ [ -74.67075, 45.00902 ], [ -74.6706, 45.00911 ], [ -74.67099, 45.0088 ], [ -74.67075, 45.00902 ] ] ], [ [ [ -74.67025, 45.00923 ], [ -74.67046, 45.00921 ], [ -74.67039, 45.00923 ], [ -74.67025, 45.00923 ] ] ], [ [ [ -74.66989, 45.00933 ], [ -74.66984, 45.00937 ], [ -74.66973, 45.00942 ], [ -74.6696, 45.00943 ], [ -74.66989, 45.00933 ] ] ], [ [ [ -74.66918, 45.00954 ], [ -74.66894, 45.00972 ], [ -74.66878, 45.00981 ], [ -74.66918, 45.00954 ] ] ], [ [ [ -74.66811, 45.01022 ], [ -74.66827, 45.01007 ], [ -74.66842, 45.00998 ], [ -74.66811, 45.01022 ] ] ], [ [ [ -74.66799, 45.01027 ], [ -74.66797, 45.01032 ], [ -74.6679, 45.01039 ], [ -74.66799, 45.01027 ] ] ], [ [ [ -74.66779, 45.01055 ], [ -74.66788, 45.01041 ], [ -74.66787, 45.01047 ], [ -74.66779, 45.01055 ] ] ], [ [ [ -74.66742, 45.01079 ], [ -74.66714, 45.01093 ], [ -74.66682, 45.01104 ], [ -74.66742, 45.01079 ] ] ], [ [ [ -74.66627, 45.01152 ], [ -74.66639, 45.01134 ], [ -74.6668, 45.01105 ], [ -74.66627, 45.01152 ] ] ], [ [ [ -74.66613, 45.01171 ], [ -74.66622, 45.01161 ], [ -74.66617, 45.01167 ], [ -74.66613, 45.01171 ] ] ], [ [ [ -74.66554, 45.01245 ], [ -74.66548, 45.0125 ], [ -74.66515, 45.01271 ], [ -74.66588, 45.01196 ], [ -74.66554, 45.01245 ] ] ], [ [ [ -74.66503, 45.0128 ], [ -74.66463, 45.0131 ], [ -74.66487, 45.01288 ], [ -74.66503, 45.0128 ] ] ], [ [ [ -74.6645, 45.01326 ], [ -74.66457, 45.01315 ], [ -74.66461, 45.01312 ], [ -74.6645, 45.01326 ] ] ], [ [ [ -74.66429, 45.01511 ], [ -74.66416, 45.01506 ], [ -74.66416, 45.01471 ], [ -74.66437, 45.0152 ], [ -74.66429, 45.01511 ] ] ], [ [ [ -74.66459, 45.01547 ], [ -74.66441, 45.01524 ], [ -74.6645, 45.01531 ], [ -74.66459, 45.01547 ] ] ], [ [ [ -74.66643, 45.01613 ], [ -74.66667, 45.01616 ], [ -74.6661, 45.01611 ], [ -74.66643, 45.01613 ] ] ], [ [ [ -74.67438, 45.0149 ], [ -74.67489, 45.01516 ], [ -74.67487, 45.01521 ], [ -74.67482, 45.01531 ], [ -74.67438, 45.0149 ] ] ], [ [ [ -74.67546, 45.01547 ], [ -74.67554, 45.01551 ], [ -74.67561, 45.01557 ], [ -74.67483, 45.01542 ], [ -74.67546, 45.01547 ] ] ], [ [ [ -74.67583, 45.01584 ], [ -74.67577, 45.01578 ], [ -74.676, 45.01591 ], [ -74.67583, 45.01584 ] ] ], [ [ [ -74.67632, 45.01607 ], [ -74.67624, 45.01605 ], [ -74.676, 45.01591 ], [ -74.67632, 45.01607 ] ] ], [ [ [ -74.67716, 45.01644 ], [ -74.67764, 45.01682 ], [ -74.67738, 45.01664 ], [ -74.67716, 45.01644 ] ] ], [ [ [ -74.67971, 45.01737 ], [ -74.67873, 45.01728 ], [ -74.67768, 45.01684 ], [ -74.67971, 45.01737 ] ] ], [ [ [ -74.68152, 45.0174 ], [ -74.6816, 45.01746 ], [ -74.68106, 45.01731 ], [ -74.68152, 45.0174 ] ] ], [ [ [ -74.68198, 45.01764 ], [ -74.68184, 45.01763 ], [ -74.6816, 45.01747 ], [ -74.68198, 45.01764 ] ] ], [ [ [ -74.66118, 45.017 ], [ -74.66147, 45.01702 ], [ -74.66166, 45.01705 ], [ -74.66193, 45.0171 ], [ -74.66118, 45.017 ] ] ], [ [ [ -74.66085, 45.017 ], [ -74.66077, 45.01697 ], [ -74.66117, 45.017 ], [ -74.66085, 45.017 ] ] ], [ [ [ -74.65995, 45.017 ], [ -74.66005, 45.01694 ], [ -74.66015, 45.01695 ], [ -74.65995, 45.017 ] ] ], [ [ [ -74.7485, 45.00876 ], [ -74.74846, 45.00874 ], [ -74.74864, 45.00871 ], [ -74.7485, 45.00876 ] ] ], [ [ [ -74.7486, 45.00991 ], [ -74.74856, 45.00989 ], [ -74.74876, 45.00985 ], [ -74.7486, 45.00991 ] ] ], [ [ [ -74.8364, 45.01884 ], [ -74.83645, 45.01892 ], [ -74.83629, 45.01897 ], [ -74.8364, 45.01884 ] ] ], [ [ [ -74.80906, 45.02068 ], [ -74.81029, 45.02016 ], [ -74.81085, 45.02016 ], [ -74.81125, 45.02047 ], [ -74.80906, 45.02068 ] ] ], [ [ [ -74.81194, 45.02085 ], [ -74.81156, 45.02041 ], [ -74.81268, 45.02105 ], [ -74.81194, 45.02085 ] ] ], [ [ [ -74.81181, 45.02175 ], [ -74.81105, 45.0206 ], [ -74.81223, 45.02121 ], [ -74.81181, 45.02175 ] ] ], [ [ [ -74.80907, 45.02118 ], [ -74.80908, 45.02089 ], [ -74.80995, 45.02205 ], [ -74.80907, 45.02118 ] ] ], [ [ [ -74.83518, 45.02961 ], [ -74.83643, 45.02954 ], [ -74.83609, 45.02984 ], [ -74.83518, 45.02961 ] ] ], [ [ [ -74.83786, 45.0315 ], [ -74.83746, 45.03172 ], [ -74.83644, 45.03079 ], [ -74.83664, 45.03011 ], [ -74.83786, 45.0315 ] ] ] ] } },
{ "type": "Feature", "properties": { "fid": 22, "ASSESSMENT": "0708", "MUNICIPALITY": "TOWN OF PRESCOTT", "TIER": "ST", "UT_NUMBER": "56", "UT_ID": "0700", "UT_Name": "Leeds and Grenville UCo", "Separated": 1.0, "Geographic_County": "Leeds & Grenville" }, "geometry": { "type": "Polygon", "coordinates": [ [ [ -75.53666, 44.7216 ], [ -75.51961, 44.73059 ], [ -75.52097, 44.73222 ], [ -75.51666, 44.7338 ], [ -75.50115, 44.71552 ], [ -75.50251, 44.71529 ], [ -75.50638, 44.71137 ], [ -75.51006, 44.71 ], [ -75.5101, 44.71076 ], [ -75.51091, 44.71045 ], [ -75.51202, 44.70908 ], [ -75.5095, 44.70975 ], [ -75.51622, 44.70724 ], [ -75.51589, 44.70672 ], [ -75.51765, 44.7064 ], [ -75.5179, 44.70582 ], [ -75.51718, 44.70595 ], [ -75.5181, 44.70537 ], [ -75.51891, 44.70562 ], [ -75.52018, 44.70366 ], [ -75.52354, 44.70351 ], [ -75.53666, 44.7216 ] ] ] } },
{ "type": "Feature", "properties": { "fid": 26, "ASSESSMENT": "0802", "MUNICIPALITY": "CITY OF BROCKVILLE", "TIER": "ST", "UT_NUMBER": "56", "UT_ID": "0700", "UT_Name": "Leeds and Grenville UCo", "Separated": 1.0, "Geographic_County": "Leeds & Grenville" }, "geometry": { "type": "MultiPolygon", "coordinates": [ [ [ [ -75.70187, 44.56751 ], [ -75.70185, 44.56756 ], [ -75.70186, 44.56751 ], [ -75.70187, 44.56751 ] ] ], [ [ [ -75.70171, 44.56792 ], [ -75.70225, 44.56797 ], [ -75.70188, 44.56821 ], [ -75.70171, 44.56792 ] ] ], [ [ [ -75.7043, 44.57046 ], [ -75.70407, 44.57053 ], [ -75.7041, 44.57022 ], [ -75.7043, 44.57046 ] ] ], [ [ [ -75.70466, 44.57091 ], [ -75.70501, 44.57132 ], [ -75.70447, 44.57128 ], [ -75.70466, 44.57091 ] ] ], [ [ [ -75.70265, 44.57531 ], [ -75.70681, 44.57197 ], [ -75.70853, 44.57359 ], [ -75.70908, 44.57433 ], [ -75.70792, 44.57489 ], [ -75.73578, 44.60865 ], [ -75.69542, 44.63473 ], [ -75.69366, 44.63272 ], [ -75.69315, 44.63306 ], [ -75.66647, 44.60116 ], [ -75.6631, 44.60358 ], [ -75.66066, 44.60164 ], [ -75.66686, 44.59937 ], [ -75.67283, 44.59445 ], [ -75.6761, 44.59319 ], [ -75.6808, 44.58988 ], [ -75.68023, 44.58714 ], [ -75.6809, 44.58666 ], [ -75.68321, 44.58602 ], [ -75.6815, 44.58727 ], [ -75.68109, 44.58857 ], [ -75.68181, 44.58919 ], [ -75.68181, 44.58731 ], [ -75.68266, 44.58682 ], [ -75.68391, 44.58722 ], [ -75.68439, 44.5854 ], [ -75.68574, 44.58459 ], [ -75.6872, 44.58588 ], [ -75.68747, 44.58589 ], [ -75.68695, 44.5852 ], [ -75.68609, 44.5847 ], [ -75.68592, 44.58436 ], [ -75.68725, 44.584 ], [ -75.68602, 44.5844 ], [ -75.68686, 44.58498 ], [ -75.68729, 44.5843 ], [ -75.68777, 44.58479 ], [ -75.68964, 44.5839 ], [ -75.69034, 44.58171 ], [ -75.69278, 44.58041 ], [ -75.69295, 44.58094 ], [ -75.69691, 44.57772 ], [ -75.6982, 44.57778 ], [ -75.69875, 44.57679 ], [ -75.70091, 44.57625 ], [ -75.7015, 44.57518 ], [ -75.70265, 44.57531 ] ] ], [ [ [ -75.70082, 44.56791 ], [ -75.70057, 44.5677 ], [ -75.7006, 44.56765 ], [ -75.70082, 44.56791 ] ] ], [ [ [ -75.69756, 44.57043 ], [ -75.69903, 44.56818 ], [ -75.70084, 44.56823 ], [ -75.69932, 44.57 ], [ -75.69756, 44.57043 ] ] ], [ [ [ -75.69733, 44.56945 ], [ -75.69669, 44.56991 ], [ -75.6973, 44.56935 ], [ -75.69733, 44.56945 ] ] ], [ [ [ -75.69741, 44.56991 ], [ -75.69743, 44.56963 ], [ -75.69752, 44.56958 ], [ -75.69741, 44.56991 ] ] ], [ [ [ -75.70023, 44.57349 ], [ -75.70037, 44.5718 ], [ -75.7018, 44.57128 ], [ -75.70504, 44.57179 ], [ -75.70178, 44.57346 ], [ -75.70155, 44.57215 ], [ -75.70023, 44.57349 ] ] ], [ [ [ -75.69424, 44.57642 ], [ -75.69478, 44.57564 ], [ -75.69503, 44.57577 ], [ -75.69424, 44.57642 ] ] ], [ [ [ -75.69813, 44.57619 ], [ -75.69736, 44.5767 ], [ -75.69713, 44.57658 ], [ -75.69813, 44.57619 ] ] ], [ [ [ -75.6928, 44.57812 ], [ -75.69243, 44.57669 ], [ -75.69389, 44.57669 ], [ -75.6928, 44.57812 ] ] ], [ [ [ -75.69533, 44.57727 ], [ -75.69432, 44.5779 ], [ -75.69518, 44.57706 ], [ -75.69533, 44.57727 ] ] ], [ [ [ -75.66265, 44.59329 ], [ -75.6628, 44.5934 ], [ -75.66268, 44.5934 ], [ -75.66265, 44.59329 ] ] ], [ [ [ -75.66269, 44.59377 ], [ -75.66237, 44.59339 ], [ -75.66277, 44.59349 ], [ -75.66269, 44.59377 ] ] ], [ [ [ -75.66214, 44.59524 ], [ -75.66383, 44.59419 ], [ -75.6646, 44.59451 ], [ -75.66214, 44.59524 ] ] ] ] } },
{ "type": "Feature", "properties": { "fid": 29, "ASSESSMENT": "0814", "MUNICIPALITY": "TOWN OF GANANOQUE", "TIER": "ST", "UT_NUMBER": "56", "UT_ID": "0700", "UT_Name": "Leeds and Grenville UCo", "Separated": 1.0, "Geographic_County": "Leeds & Grenville" }, "geometry": { "type": "Polygon", "coordinates": [ [ [ -76.14546, 44.33092 ], [ -76.14649, 44.32992 ], [ -76.14639, 44.33039 ], [ -76.14705, 44.33044 ], [ -76.1473, 44.3314 ], [ -76.14808, 44.33174 ], [ -76.14775, 44.33075 ], [ -76.14969, 44.32987 ], [ -76.15194, 44.32735 ], [ -76.15696, 44.32499 ], [ -76.15958, 44.32534 ], [ -76.16314, 44.32263 ], [ -76.16316, 44.32164 ], [ -76.16408, 44.32432 ], [ -76.16485, 44.32378 ], [ -76.16477, 44.32358 ], [ -76.16575, 44.32284 ], [ -76.16445, 44.32421 ], [ -76.16512, 44.32426 ], [ -76.16748, 44.32344 ], [ -76.16854, 44.32215 ], [ -76.17041, 44.32183 ], [ -76.17176, 44.32247 ], [ -76.17591, 44.31966 ], [ -76.17978, 44.31906 ], [ -76.18154, 44.31802 ], [ -76.18254, 44.31845 ], [ -76.18219, 44.31802 ], [ -76.18456, 44.31628 ], [ -76.18574, 44.33167 ], [ -76.18541, 44.3421 ], [ -76.17397, 44.34388 ], [ -76.17204, 44.34286 ], [ -76.16901, 44.34298 ], [ -76.16774, 44.34482 ], [ -76.16165, 44.34541 ], [ -76.15552, 44.345 ], [ -76.14518, 44.3471 ], [ -76.14546, 44.33092 ] ] ] } },
{ "type": "Feature", "properties": { "fid": 35, "ASSESSMENT": "0904", "MUNICIPALITY": "TOWN OF SMITHS FALLS", "TIER": "ST", "UT_NUMBER": "55", "UT_ID": "0900", "UT_Name": "Lanark Co", "Separated": 1.0, "Geographic_County": "County of Lanark" }, "geometry": { "type": "Polygon", "coordinates": [ [ [ -75.99705, 44.89105 ], [ -75.99955, 44.89076 ], [ -76.00364, 44.89225 ], [ -76.00444, 44.89017 ], [ -76.00973, 44.88675 ], [ -76.00559, 44.88317 ], [ -76.0104, 44.87994 ], [ -76.01177, 44.88107 ], [ -76.01502, 44.88033 ], [ -76.01503, 44.87799 ], [ -76.01641, 44.87712 ], [ -76.02577, 44.88502 ], [ -76.03547, 44.87832 ], [ -76.03728, 44.87977 ], [ -76.03154, 44.89089 ], [ -76.03369, 44.89168 ], [ -76.0339, 44.89086 ], [ -76.03766, 44.89346 ], [ -76.03786, 44.89566 ], [ -76.03558, 44.89672 ], [ -76.0301, 44.89596 ], [ -76.03353, 44.89858 ], [ -76.03022, 44.90049 ], [ -76.03142, 44.90161 ], [ -76.03108, 44.90439 ], [ -76.03261, 44.90642 ], [ -76.02162, 44.91421 ], [ -76.00324, 44.89932 ], [ -75.9987, 44.90187 ], [ -76.00131, 44.90413 ], [ -75.96988, 44.90586 ], [ -75.98255, 44.89736 ], [ -75.97731, 44.89316 ], [ -75.97986, 44.89161 ], [ -75.97607, 44.88845 ], [ -75.97902, 44.88628 ], [ -75.98322, 44.88973 ], [ -75.98965, 44.88594 ], [ -75.99414, 44.88854 ], [ -75.99584, 44.89131 ], [ -75.9969, 44.89041 ], [ -75.99705, 44.89105 ] ] ] } },
{ "type": "Feature", "properties": { "fid": 45, "ASSESSMENT": "1011", "MUNICIPALITY": "CITY OF KINGSTON", "TIER": "ST", "UT_NUMBER": "46", "UT_ID": "1000", "UT_Name": "Frontenac Co", "Separated": 1.0, "Geographic_County": "Frontenac" }, "geometry": { "type": "MultiPolygon", "coordinates": [ [ [ [ -76.62869, 44.22394 ], [ -76.64402, 44.25022 ], [ -76.69967, 44.33096 ], [ -76.71278, 44.35184 ], [ -76.68733, 44.35259 ], [ -76.64898, 44.35541 ], [ -76.61815, 44.35554 ], [ -76.56796, 44.35728 ], [ -76.56833, 44.33864 ], [ -76.40238, 44.34579 ], [ -76.38848, 44.35852 ], [ -76.37244, 44.35647 ], [ -76.36209, 44.35796 ], [ -76.35775, 44.36185 ], [ -76.36186, 44.36458 ], [ -76.35952, 44.37042 ], [ -76.35032, 44.37042 ], [ -76.34764, 44.37266 ], [ -76.34345, 44.37386 ], [ -76.33441, 44.37891 ], [ -76.33287, 44.38194 ], [ -76.32537, 44.38818 ], [ -76.3219, 44.39727 ], [ -76.31758, 44.4009 ], [ -76.31948, 44.40267 ], [ -76.31896, 44.40444 ], [ -76.31781, 44.40666 ], [ -76.31365, 44.41075 ], [ -76.31272, 44.41526 ], [ -76.31042, 44.41624 ], [ -76.3096, 44.41777 ], [ -76.30769, 44.42742 ], [ -76.30126, 44.43496 ], [ -76.29782, 44.43673 ], [ -76.2964, 44.43948 ], [ -76.29569, 44.44814 ], [ -76.27935, 44.45901 ], [ -76.27775, 44.46301 ], [ -76.27908, 44.46428 ], [ -76.27446, 44.46787 ], [ -76.27238, 44.47179 ], [ -76.26778, 44.47418 ], [ -76.26648, 44.47382 ], [ -76.26482, 44.47442 ], [ -76.26121, 44.47698 ], [ -76.25267, 44.48014 ], [ -76.24851, 44.45604 ], [ -76.24784, 44.44685 ], [ -76.24853, 44.44686 ], [ -76.24328, 44.40885 ], [ -76.23983, 44.37283 ], [ -76.23554, 44.35144 ], [ -76.23432, 44.3095 ], [ -76.2351, 44.31103 ], [ -76.23831, 44.31306 ], [ -76.23845, 44.31419 ], [ -76.23894, 44.31467 ], [ -76.2394, 44.31597 ], [ -76.2396, 44.31602 ], [ -76.23873, 44.31317 ], [ -76.23488, 44.30856 ], [ -76.23567, 44.30676 ], [ -76.23709, 44.30624 ], [ -76.23663, 44.3068 ], [ -76.2376, 44.30789 ], [ -76.23956, 44.30782 ], [ -76.24041, 44.30831 ], [ -76.23989, 44.30942 ], [ -76.24313, 44.31034 ], [ -76.24515, 44.30856 ], [ -76.24645, 44.30861 ], [ -76.24678, 44.30737 ], [ -76.24726, 44.30871 ], [ -76.24845, 44.3078 ], [ -76.24996, 44.30814 ], [ -76.25045, 44.30628 ], [ -76.25139, 44.3059 ], [ -76.2536, 44.3067 ], [ -76.25647, 44.30639 ], [ -76.25723, 44.30742 ], [ -76.25845, 44.30476 ], [ -76.26391, 44.306 ], [ -76.26707, 44.30525 ], [ -76.26965, 44.30596 ], [ -76.27411, 44.304 ], [ -76.27549, 44.30238 ], [ -76.27646, 44.30316 ], [ -76.27762, 44.30195 ], [ -76.27927, 44.30318 ], [ -76.28205, 44.3022 ], [ -76.28309, 44.3025 ], [ -76.28357, 44.30218 ], [ -76.28329, 44.30145 ], [ -76.28263, 44.30098 ], [ -76.28334, 44.30032 ], [ -76.28515, 44.30033 ], [ -76.28583, 44.29909 ], [ -76.28937, 44.29976 ], [ -76.28981, 44.299 ], [ -76.29291, 44.29831 ], [ -76.29427, 44.29661 ], [ -76.29482, 44.29789 ], [ -76.29672, 44.29812 ], [ -76.29628, 44.29709 ], [ -76.30008, 44.29496 ], [ -76.30208, 44.29635 ], [ -76.30359, 44.2964 ], [ -76.30396, 44.29236 ], [ -76.30517, 44.29095 ], [ -76.30819, 44.29031 ], [ -76.30993, 44.29123 ], [ -76.31428, 44.2906 ], [ -76.31939, 44.28574 ], [ -76.32042, 44.28335 ], [ -76.32624, 44.28045 ], [ -76.32521, 44.27948 ], [ -76.32602, 44.27876 ], [ -76.3255, 44.27792 ], [ -76.32697, 44.27704 ], [ -76.32769, 44.27793 ], [ -76.32875, 44.27773 ], [ -76.3328, 44.2739 ], [ -76.33554, 44.27365 ], [ -76.33925, 44.2716 ], [ -76.34232, 44.27137 ], [ -76.34212, 44.27194 ], [ -76.34316, 44.27209 ], [ -76.34616, 44.27062 ], [ -76.35083, 44.27065 ], [ -76.35647, 44.26936 ], [ -76.35768, 44.26821 ], [ -76.35628, 44.26604 ], [ -76.35852, 44.26539 ], [ -76.36284, 44.26578 ], [ -76.36296, 44.26481 ], [ -76.36452, 44.2651 ], [ -76.36555, 44.26445 ], [ -76.36582, 44.26575 ], [ -76.36967, 44.26555 ], [ -76.36881, 44.26692 ], [ -76.36922, 44.26724 ], [ -76.37034, 44.26721 ], [ -76.37129, 44.26636 ], [ -76.37075, 44.26513 ], [ -76.37265, 44.26288 ], [ -76.37559, 44.2626 ], [ -76.37544, 44.2609 ], [ -76.37051, 44.26067 ], [ -76.37044, 44.2596 ], [ -76.36836, 44.26015 ], [ -76.36773, 44.25965 ], [ -76.36844, 44.25908 ], [ -76.37373, 44.25706 ], [ -76.37532, 44.25717 ], [ -76.37578, 44.25838 ], [ -76.37419, 44.25926 ], [ -76.37648, 44.26049 ], [ -76.37621, 44.26278 ], [ -76.37828, 44.26359 ], [ -76.37814, 44.26275 ], [ -76.37903, 44.26319 ], [ -76.38047, 44.26234 ], [ -76.37765, 44.26257 ], [ -76.37665, 44.26013 ], [ -76.37863, 44.26053 ], [ -76.37838, 44.26133 ], [ -76.37986, 44.26194 ], [ -76.38039, 44.25741 ], [ -76.38974, 44.2509 ], [ -76.39278, 44.2495 ], [ -76.39501, 44.25022 ], [ -76.39943, 44.24996 ], [ -76.40026, 44.24895 ], [ -76.40862, 44.24524 ], [ -76.41042, 44.2435 ], [ -76.41874, 44.24041 ], [ -76.42147, 44.24021 ], [ -76.43152, 44.23479 ], [ -76.4388, 44.23341 ], [ -76.44253, 44.23442 ], [ -76.44638, 44.23209 ], [ -76.44712, 44.23077 ], [ -76.4501, 44.23001 ], [ -76.44955, 44.23203 ], [ -76.44585, 44.23631 ], [ -76.4614, 44.22785 ], [ -76.46242, 44.22852 ], [ -76.46218, 44.23161 ], [ -76.464, 44.23483 ], [ -76.46549, 44.23154 ], [ -76.46524, 44.23 ], [ -76.46636, 44.229 ], [ -76.46544, 44.2286 ], [ -76.46643, 44.22878 ], [ -76.46772, 44.22727 ], [ -76.46992, 44.22645 ], [ -76.47118, 44.22812 ], [ -76.47079, 44.23475 ], [ -76.47409, 44.2346 ], [ -76.47399, 44.23407 ], [ -76.4742, 44.23474 ], [ -76.47473, 44.23404 ], [ -76.47473, 44.23455 ], [ -76.47668, 44.23453 ], [ -76.47747, 44.23255 ], [ -76.47596, 44.23202 ], [ -76.47806, 44.23235 ], [ -76.47633, 44.2316 ], [ -76.47857, 44.23187 ], [ -76.47737, 44.23159 ], [ -76.47708, 44.2304 ], [ -76.4784, 44.23028 ], [ -76.47729, 44.22987 ], [ -76.47881, 44.23013 ], [ -76.48002, 44.2282 ], [ -76.47924, 44.22771 ], [ -76.4807, 44.22807 ], [ -76.48148, 44.22722 ], [ -76.48039, 44.22662 ], [ -76.48131, 44.22553 ], [ -76.47909, 44.22462 ], [ -76.47705, 44.22634 ], [ -76.47852, 44.22455 ], [ -76.47918, 44.22444 ], [ -76.48209, 44.22547 ], [ -76.48199, 44.22452 ], [ -76.48364, 44.22548 ], [ -76.48222, 44.22427 ], [ -76.48367, 44.22446 ], [ -76.48496, 44.2233 ], [ -76.48543, 44.22376 ], [ -76.48545, 44.22323 ], [ -76.48657, 44.22325 ], [ -76.48663, 44.2223 ], [ -76.48552, 44.22245 ], [ -76.48633, 44.22202 ], [ -76.48734, 44.22253 ], [ -76.48973, 44.2217 ], [ -76.49667, 44.22238 ], [ -76.50089, 44.222 ], [ -76.50244, 44.2207 ], [ -76.50164, 44.22059 ], [ -76.50258, 44.22044 ], [ -76.50454, 44.22103 ], [ -76.50708, 44.21945 ], [ -76.51085, 44.21862 ], [ -76.51163, 44.21751 ], [ -76.51409, 44.2171 ], [ -76.51498, 44.21731 ], [ -76.51542, 44.22032 ], [ -76.51667, 44.22027 ], [ -76.51642, 44.21924 ], [ -76.51775, 44.21763 ], [ -76.51552, 44.21755 ], [ -76.51841, 44.21748 ], [ -76.52278, 44.21421 ], [ -76.52635, 44.21444 ], [ -76.52855, 44.21382 ], [ -76.53066, 44.2144 ], [ -76.53343, 44.21788 ], [ -76.53464, 44.21707 ], [ -76.53562, 44.21896 ], [ -76.5366, 44.21876 ], [ -76.53725, 44.21972 ], [ -76.53792, 44.21974 ], [ -76.53708, 44.21632 ], [ -76.54057, 44.21963 ], [ -76.54567, 44.2197 ], [ -76.54688, 44.21883 ], [ -76.54664, 44.21751 ], [ -76.54869, 44.21597 ], [ -76.5472, 44.215 ], [ -76.54745, 44.21337 ], [ -76.54446, 44.21132 ], [ -76.54598, 44.20936 ], [ -76.54863, 44.20824 ], [ -76.55064, 44.20832 ], [ -76.55125, 44.20973 ], [ -76.55026, 44.21152 ], [ -76.55246, 44.21273 ], [ -76.55676, 44.21219 ], [ -76.55753, 44.20925 ], [ -76.55965, 44.20858 ], [ -76.56175, 44.20924 ], [ -76.56532, 44.20844 ], [ -76.56682, 44.20928 ], [ -76.56663, 44.21198 ], [ -76.56827, 44.21293 ], [ -76.57358, 44.21136 ], [ -76.57658, 44.21143 ], [ -76.57711, 44.21208 ], [ -76.57569, 44.21641 ], [ -76.58061, 44.21522 ], [ -76.5838, 44.21836 ], [ -76.58527, 44.21879 ], [ -76.59116, 44.21545 ], [ -76.59402, 44.21667 ], [ -76.59587, 44.21665 ], [ -76.60559, 44.21292 ], [ -76.60908, 44.21357 ], [ -76.61299, 44.21675 ], [ -76.61786, 44.21913 ], [ -76.61853, 44.22242 ], [ -76.61692, 44.22695 ], [ -76.61448, 44.22934 ], [ -76.61528, 44.23235 ], [ -76.61423, 44.23372 ], [ -76.61156, 44.23492 ], [ -76.61005, 44.23697 ], [ -76.60718, 44.23786 ], [ -76.60597, 44.23942 ], [ -76.60583, 44.23887 ], [ -76.5966, 44.23941 ], [ -76.60196, 44.24014 ], [ -76.60265, 44.24064 ], [ -76.60162, 44.24053 ], [ -76.60209, 44.2413 ], [ -76.60474, 44.24201 ], [ -76.60958, 44.24081 ], [ -76.61264, 44.23898 ], [ -76.61491, 44.23883 ], [ -76.61916, 44.23637 ], [ -76.62504, 44.23085 ], [ -76.62848, 44.22503 ], [ -76.6283, 44.22411 ], [ -76.6271, 44.22382 ], [ -76.62869, 44.22394 ] ] ], [ [ [ -76.54246, 44.19114 ], [ -76.54367, 44.19082 ], [ -76.54188, 44.19145 ], [ -76.54246, 44.19114 ] ] ], [ [ [ -76.59216, 44.19839 ], [ -76.59233, 44.19905 ], [ -76.59222, 44.19915 ], [ -76.59216, 44.19839 ] ] ], [ [ [ -76.53561, 44.21294 ], [ -76.54412, 44.21129 ], [ -76.54426, 44.2113 ], [ -76.53727, 44.21291 ], [ -76.53561, 44.21294 ] ] ], [ [ [ -76.53684, 44.21591 ], [ -76.53749, 44.2148 ], [ -76.53702, 44.21618 ], [ -76.53684, 44.21591 ] ] ], [ [ [ -76.44987, 44.22739 ], [ -76.45418, 44.22445 ], [ -76.45559, 44.22424 ], [ -76.45383, 44.2273 ], [ -76.44975, 44.22917 ], [ -76.44987, 44.22739 ] ] ], [ [ [ -76.47767, 44.22866 ], [ -76.47773, 44.22648 ], [ -76.47778, 44.22876 ], [ -76.47767, 44.22866 ] ] ], [ [ [ -76.45078, 44.22955 ], [ -76.45096, 44.22907 ], [ -76.45166, 44.22928 ], [ -76.45078, 44.22955 ] ] ], [ [ [ -76.45059, 44.23 ], [ -76.45078, 44.23003 ], [ -76.45071, 44.23009 ], [ -76.45059, 44.23 ] ] ], [ [ [ -76.45049, 44.23015 ], [ -76.45027, 44.23025 ], [ -76.45052, 44.23002 ], [ -76.45049, 44.23015 ] ] ], [ [ [ -76.44881, 44.23023 ], [ -76.44912, 44.23012 ], [ -76.44892, 44.23029 ], [ -76.44881, 44.23023 ] ] ], [ [ [ -76.39585, 44.24499 ], [ -76.39671, 44.24436 ], [ -76.40121, 44.24461 ], [ -76.39793, 44.24553 ], [ -76.39624, 44.24554 ], [ -76.39708, 44.24483 ], [ -76.39585, 44.24499 ] ] ], [ [ [ -76.37858, 44.26029 ], [ -76.37887, 44.26042 ], [ -76.37857, 44.26049 ], [ -76.37858, 44.26029 ] ] ], [ [ [ -76.35313, 44.26158 ], [ -76.35305, 44.26175 ], [ -76.35304, 44.26154 ], [ -76.35313, 44.26158 ] ] ], [ [ [ -76.3532, 44.26257 ], [ -76.35314, 44.26242 ], [ -76.3533, 44.26243 ], [ -76.3532, 44.26257 ] ] ], [ [ [ -76.36232, 44.26455 ], [ -76.36143, 44.2645 ], [ -76.36175, 44.26421 ], [ -76.36232, 44.26455 ] ] ], [ [ [ -76.36983, 44.26646 ], [ -76.36974, 44.26638 ], [ -76.36983, 44.26633 ], [ -76.36983, 44.26646 ] ] ], [ [ [ -76.37028, 44.26637 ], [ -76.3697, 44.26716 ], [ -76.36902, 44.26699 ], [ -76.37028, 44.26637 ] ] ], [ [ [ -76.34768, 44.27022 ], [ -76.3478, 44.27028 ], [ -76.34766, 44.27034 ], [ -76.34768, 44.27022 ] ] ], [ [ [ -76.3451, 44.27044 ], [ -76.34431, 44.27051 ], [ -76.34492, 44.27027 ], [ -76.3451, 44.27044 ] ] ], [ [ [ -76.34302, 44.27147 ], [ -76.34275, 44.27161 ], [ -76.34304, 44.27141 ], [ -76.34302, 44.27147 ] ] ], [ [ [ -76.28968, 44.29827 ], [ -76.28928, 44.29833 ], [ -76.2896, 44.29817 ], [ -76.28968, 44.29827 ] ] ], [ [ [ -76.29013, 44.29832 ], [ -76.29004, 44.29843 ], [ -76.29002, 44.2983 ], [ -76.29013, 44.29832 ] ] ], [ [ [ -76.28995, 44.29868 ], [ -76.28985, 44.29866 ], [ -76.28992, 44.29863 ], [ -76.28995, 44.29868 ] ] ], [ [ [ -76.28315, 44.30147 ], [ -76.283, 44.30141 ], [ -76.28309, 44.30139 ], [ -76.28315, 44.30147 ] ] ], [ [ [ -76.24931, 44.30411 ], [ -76.24921, 44.30459 ], [ -76.24867, 44.30461 ], [ -76.2487, 44.30444 ], [ -76.24931, 44.30411 ] ] ] ] } },
{ "type": "Feature", "properties": { "fid": 57, "ASSESSMENT": "1204", "MUNICIPALITY": "CITY OF QUINTE WEST", "TIER": "ST", "UT_NUMBER": "51", "UT_ID": "1200", "UT_Name": "Hastings Co", "Separated": 1.0, "Geographic_County": "County of Hastings" }, "geometry": { "type": "MultiPolygon", "coordinates": [ [ [ [ -77.61505, 44.02041 ], [ -77.60985, 44.01745 ], [ -77.60861, 44.01608 ], [ -77.60786, 44.01729 ], [ -77.60657, 44.01764 ], [ -77.6063, 44.01715 ], [ -77.6088, 44.01569 ], [ -77.62286, 44.02239 ], [ -77.62725, 44.02344 ], [ -77.62808, 44.02219 ], [ -77.62731, 44.02444 ], [ -77.62786, 44.02537 ], [ -77.62504, 44.02617 ], [ -77.62368, 44.02437 ], [ -77.62085, 44.02513 ], [ -77.61758, 44.0236 ], [ -77.61911, 44.02301 ], [ -77.61875, 44.02254 ], [ -77.61618, 44.02336 ], [ -77.61505, 44.02041 ] ] ], [ [ [ -77.6539, 44.02168 ], [ -77.66076, 44.03674 ], [ -77.59827, 44.05579 ], [ -77.58138, 44.06075 ], [ -77.58701, 44.05881 ], [ -77.59095, 44.05482 ], [ -77.59003, 44.05437 ], [ -77.59038, 44.05351 ], [ -77.58965, 44.05322 ], [ -77.58987, 44.05437 ], [ -77.59074, 44.05486 ], [ -77.58751, 44.0575 ], [ -77.58509, 44.05841 ], [ -77.58115, 44.05732 ], [ -77.58031, 44.05647 ], [ -77.57956, 44.05688 ], [ -77.57887, 44.05623 ], [ -77.58035, 44.05026 ], [ -77.58662, 44.04312 ], [ -77.5955, 44.03508 ], [ -77.59667, 44.03594 ], [ -77.59729, 44.03511 ], [ -77.59981, 44.03727 ], [ -77.60034, 44.03676 ], [ -77.60104, 44.03742 ], [ -77.60293, 44.03728 ], [ -77.60365, 44.03637 ], [ -77.60717, 44.03555 ], [ -77.60676, 44.03497 ], [ -77.60539, 44.03581 ], [ -77.60878, 44.03354 ], [ -77.60971, 44.03387 ], [ -77.61056, 44.03285 ], [ -77.61172, 44.03314 ], [ -77.61189, 44.03243 ], [ -77.61477, 44.03131 ], [ -77.61833, 44.03241 ], [ -77.62063, 44.0316 ], [ -77.62294, 44.03256 ], [ -77.62328, 44.03184 ], [ -77.62414, 44.03273 ], [ -77.62389, 44.03171 ], [ -77.62683, 44.03341 ], [ -77.62482, 44.02821 ], [ -77.62402, 44.0291 ], [ -77.62445, 44.02742 ], [ -77.62756, 44.02615 ], [ -77.62929, 44.02465 ], [ -77.62868, 44.02504 ], [ -77.62828, 44.02415 ], [ -77.6319, 44.02211 ], [ -77.63712, 44.02028 ], [ -77.64387, 44.02012 ], [ -77.64881, 44.02172 ], [ -77.6539, 44.02168 ] ] ], [ [ [ -77.66089, 44.03703 ], [ -77.66163, 44.03864 ], [ -77.66422, 44.03811 ], [ -77.68876, 44.09127 ], [ -77.68488, 44.09222 ], [ -77.72875, 44.18036 ], [ -77.72696, 44.1808 ], [ -77.7532, 44.23298 ], [ -77.7488, 44.23313 ], [ -77.74914, 44.23233 ], [ -77.74831, 44.23335 ], [ -77.73744, 44.23519 ], [ -77.73318, 44.23901 ], [ -77.7286, 44.24099 ], [ -77.72844, 44.24051 ], [ -77.72206, 44.24594 ], [ -77.72074, 44.24856 ], [ -77.7202, 44.24713 ], [ -77.72108, 44.24588 ], [ -77.72351, 44.24301 ], [ -77.72609, 44.24196 ], [ -77.72292, 44.24215 ], [ -77.72123, 44.24157 ], [ -77.72099, 44.24215 ], [ -77.71852, 44.24234 ], [ -77.71708, 44.24211 ], [ -77.71735, 44.24118 ], [ -77.71588, 44.2416 ], [ -77.71649, 44.24391 ], [ -77.71523, 44.24439 ], [ -77.7156, 44.24804 ], [ -77.7122, 44.25148 ], [ -77.70932, 44.25732 ], [ -77.70762, 44.2578 ], [ -77.70245, 44.25696 ], [ -77.69732, 44.25713 ], [ -77.69698, 44.25629 ], [ -77.70124, 44.2559 ], [ -77.70074, 44.25468 ], [ -77.69547, 44.25403 ], [ -77.69423, 44.25649 ], [ -77.68892, 44.25831 ], [ -77.68547, 44.2619 ], [ -77.68309, 44.26309 ], [ -77.67786, 44.26214 ], [ -77.67285, 44.25755 ], [ -77.66178, 44.25634 ], [ -77.65671, 44.25689 ], [ -77.65319, 44.25612 ], [ -77.64993, 44.25427 ], [ -77.6483, 44.25067 ], [ -77.64201, 44.24779 ], [ -77.63902, 44.24758 ], [ -77.65081, 44.27106 ], [ -77.56736, 44.29125 ], [ -77.56372, 44.28376 ], [ -77.53728, 44.29039 ], [ -77.54076, 44.2978 ], [ -77.47297, 44.31449 ], [ -77.41186, 44.18907 ], [ -77.44727, 44.1802 ], [ -77.42629, 44.13717 ], [ -77.43242, 44.13585 ], [ -77.43434, 44.1342 ], [ -77.43898, 44.13222 ], [ -77.44645, 44.13174 ], [ -77.45345, 44.12851 ], [ -77.45368, 44.12894 ], [ -77.45777, 44.12612 ], [ -77.4677, 44.12267 ], [ -77.47372, 44.12236 ], [ -77.47214, 44.12092 ], [ -77.4748, 44.12096 ], [ -77.47507, 44.12021 ], [ -77.47766, 44.1198 ], [ -77.47851, 44.121 ], [ -77.47917, 44.12039 ], [ -77.48031, 44.12103 ], [ -77.47981, 44.11987 ], [ -77.48809, 44.11911 ], [ -77.48979, 44.11753 ], [ -77.48997, 44.1195 ], [ -77.49329, 44.11997 ], [ -77.4948, 44.11964 ], [ -77.49466, 44.11897 ], [ -77.49549, 44.11845 ], [ -77.49596, 44.11981 ], [ -77.49525, 44.11987 ], [ -77.49619, 44.12005 ], [ -77.49563, 44.11827 ], [ -77.49693, 44.11891 ], [ -77.49691, 44.11776 ], [ -77.49817, 44.1182 ], [ -77.50231, 44.11744 ], [ -77.5034, 44.11843 ], [ -77.50496, 44.11812 ], [ -77.50528, 44.11646 ], [ -77.50665, 44.11702 ], [ -77.50696, 44.11626 ], [ -77.50773, 44.11715 ], [ -77.50808, 44.11541 ], [ -77.50881, 44.11629 ], [ -77.5084, 44.11532 ], [ -77.51102, 44.11445 ], [ -77.51216, 44.11272 ], [ -77.51434, 44.11203 ], [ -77.51478, 44.11245 ], [ -77.51459, 44.11067 ], [ -77.51577, 44.11169 ], [ -77.51486, 44.11047 ], [ -77.51607, 44.11124 ], [ -77.51866, 44.11044 ], [ -77.51912, 44.10811 ], [ -77.52077, 44.1083 ], [ -77.52103, 44.10751 ], [ -77.5221, 44.10784 ], [ -77.52244, 44.10723 ], [ -77.52901, 44.10567 ], [ -77.53088, 44.10381 ], [ -77.5303, 44.10343 ], [ -77.5312, 44.10328 ], [ -77.52964, 44.10169 ], [ -77.5249, 44.10274 ], [ -77.52414, 44.1037 ], [ -77.52553, 44.10079 ], [ -77.52684, 44.10036 ], [ -77.52906, 44.10035 ], [ -77.53152, 44.10326 ], [ -77.53484, 44.10465 ], [ -77.5388, 44.10496 ], [ -77.53883, 44.10393 ], [ -77.53756, 44.10326 ], [ -77.54341, 44.10491 ], [ -77.54445, 44.10438 ], [ -77.54383, 44.10394 ], [ -77.54751, 44.10355 ], [ -77.54711, 44.10136 ], [ -77.54874, 44.10332 ], [ -77.55016, 44.10329 ], [ -77.55158, 44.10221 ], [ -77.55244, 44.1031 ], [ -77.55239, 44.10236 ], [ -77.55262, 44.10295 ], [ -77.55261, 44.10234 ], [ -77.55406, 44.10292 ], [ -77.55408, 44.10176 ], [ -77.55552, 44.10265 ], [ -77.55855, 44.10093 ], [ -77.55958, 44.09859 ], [ -77.56126, 44.09846 ], [ -77.56302, 44.09932 ], [ -77.56831, 44.09904 ], [ -77.56868, 44.0998 ], [ -77.5679, 44.10008 ], [ -77.56853, 44.09973 ], [ -77.56751, 44.09915 ], [ -77.56653, 44.10019 ], [ -77.56741, 44.09999 ], [ -77.56699, 44.10042 ], [ -77.56939, 44.10167 ], [ -77.56986, 44.10134 ], [ -77.56821, 44.10031 ], [ -77.56871, 44.09996 ], [ -77.57017, 44.10123 ], [ -77.57247, 44.10039 ], [ -77.57421, 44.09855 ], [ -77.57315, 44.09836 ], [ -77.57323, 44.09689 ], [ -77.57528, 44.09605 ], [ -77.57499, 44.08954 ], [ -77.57594, 44.08622 ], [ -77.57877, 44.08557 ], [ -77.58244, 44.0816 ], [ -77.58907, 44.0772 ], [ -77.59239, 44.07354 ], [ -77.5951, 44.07267 ], [ -77.59829, 44.06732 ], [ -77.6006, 44.06734 ], [ -77.60255, 44.06589 ], [ -77.60206, 44.06535 ], [ -77.60061, 44.0665 ], [ -77.59873, 44.066 ], [ -77.59809, 44.06528 ], [ -77.59878, 44.06473 ], [ -77.59785, 44.06515 ], [ -77.59814, 44.06416 ], [ -77.59698, 44.06439 ], [ -77.59777, 44.06378 ], [ -77.59672, 44.06422 ], [ -77.59747, 44.0636 ], [ -77.59654, 44.06407 ], [ -77.597, 44.0635 ], [ -77.59576, 44.06367 ], [ -77.5958, 44.0629 ], [ -77.59505, 44.06324 ], [ -77.59517, 44.06261 ], [ -77.59424, 44.06289 ], [ -77.59412, 44.06211 ], [ -77.59196, 44.06181 ], [ -77.58779, 44.05962 ], [ -77.58168, 44.06125 ], [ -77.65962, 44.0374 ], [ -77.66089, 44.03703 ] ] ], [ [ [ -77.61781, 44.02381 ], [ -77.61678, 44.02424 ], [ -77.61743, 44.02363 ], [ -77.61781, 44.02381 ] ] ], [ [ [ -77.65835, 44.03766 ], [ -77.65898, 44.03757 ], [ -77.65829, 44.03775 ], [ -77.65835, 44.03766 ] ] ], [ [ [ -77.62659, 44.04743 ], [ -77.62717, 44.0472 ], [ -77.62728, 44.04722 ], [ -77.62659, 44.04743 ] ] ], [ [ [ -77.60322, 44.05453 ], [ -77.60359, 44.05435 ], [ -77.60395, 44.05428 ], [ -77.60322, 44.05453 ] ] ], [ [ [ -77.59856, 44.05588 ], [ -77.598, 44.05611 ], [ -77.59797, 44.05609 ], [ -77.59856, 44.05588 ] ] ], [ [ [ -77.52417, 44.10283 ], [ -77.52373, 44.10319 ], [ -77.52394, 44.10281 ], [ -77.52417, 44.10283 ] ] ], [ [ [ -77.54592, 44.1036 ], [ -77.54711, 44.10308 ], [ -77.54729, 44.10306 ], [ -77.54592, 44.1036 ] ] ], [ [ [ -77.5188, 44.10822 ], [ -77.51701, 44.10979 ], [ -77.51812, 44.10857 ], [ -77.5188, 44.10822 ] ] ], [ [ [ -77.49428, 44.11306 ], [ -77.49231, 44.11502 ], [ -77.49179, 44.11425 ], [ -77.49428, 44.11306 ] ] ], [ [ [ -77.48913, 44.11632 ], [ -77.48947, 44.11638 ], [ -77.4891, 44.1164 ], [ -77.48913, 44.11632 ] ] ], [ [ [ -77.47189, 44.12107 ], [ -77.47196, 44.12098 ], [ -77.47206, 44.12122 ], [ -77.47189, 44.12107 ] ] ], [ [ [ -77.43935, 44.13206 ], [ -77.43935, 44.13215 ], [ -77.43929, 44.13219 ], [ -77.43935, 44.13206 ] ] ] ] } },
{ "type": "Feature", "properties": { "fid": 58, "ASSESSMENT": "1208", "MUNICIPALITY": "CITY OF BELLEVILLE", "TIER": "ST", "UT_NUMBER": "51", "UT_ID": "1200", "UT_Name": "Hastings Co", "Separated": 1.0, "Geographic_County": "County of Hastings" }, "geometry": { "type": "MultiPolygon", "coordinates": [ [ [ [ -77.25039, 44.17645 ], [ -77.25153, 44.17682 ], [ -77.25058, 44.17736 ], [ -77.25133, 44.17827 ], [ -77.25478, 44.17952 ], [ -77.25748, 44.17893 ], [ -77.25858, 44.17648 ], [ -77.26094, 44.17508 ], [ -77.26342, 44.17501 ], [ -77.26306, 44.17694 ], [ -77.26388, 44.17622 ], [ -77.26443, 44.17527 ], [ -77.26428, 44.17352 ], [ -77.26546, 44.17256 ], [ -77.27015, 44.17004 ], [ -77.27, 44.17063 ], [ -77.27074, 44.17104 ], [ -77.27031, 44.16994 ], [ -77.27239, 44.1685 ], [ -77.27489, 44.16371 ], [ -77.27961, 44.16293 ], [ -77.27946, 44.16233 ], [ -77.28016, 44.16268 ], [ -77.28097, 44.16086 ], [ -77.28093, 44.16133 ], [ -77.28206, 44.16007 ], [ -77.28453, 44.15986 ], [ -77.28608, 44.15761 ], [ -77.2872, 44.15738 ], [ -77.2881, 44.15843 ], [ -77.28915, 44.15775 ], [ -77.28878, 44.15702 ], [ -77.29281, 44.15691 ], [ -77.2907, 44.15669 ], [ -77.29122, 44.1553 ], [ -77.29207, 44.15556 ], [ -77.2935, 44.15474 ], [ -77.29226, 44.15495 ], [ -77.29245, 44.15447 ], [ -77.29631, 44.15337 ], [ -77.29764, 44.15438 ], [ -77.29709, 44.15639 ], [ -77.30025, 44.15692 ], [ -77.30112, 44.15546 ], [ -77.30129, 44.1568 ], [ -77.30227, 44.15639 ], [ -77.30357, 44.15717 ], [ -77.30432, 44.15487 ], [ -77.30866, 44.15509 ], [ -77.30891, 44.1545 ], [ -77.30927, 44.15447 ], [ -77.31169, 44.15535 ], [ -77.31222, 44.15443 ], [ -77.31784, 44.15338 ], [ -77.3182, 44.15422 ], [ -77.31611, 44.15501 ], [ -77.3164, 44.15558 ], [ -77.31555, 44.1557 ], [ -77.31262, 44.1585 ], [ -77.31376, 44.15906 ], [ -77.31818, 44.15647 ], [ -77.32119, 44.15616 ], [ -77.31754, 44.15898 ], [ -77.31836, 44.16091 ], [ -77.31787, 44.163 ], [ -77.32019, 44.16387 ], [ -77.31563, 44.1635 ], [ -77.31628, 44.16476 ], [ -77.31335, 44.16598 ], [ -77.31417, 44.16628 ], [ -77.31661, 44.1652 ], [ -77.31771, 44.16671 ], [ -77.32018, 44.16769 ], [ -77.31761, 44.16603 ], [ -77.32319, 44.16448 ], [ -77.32031, 44.1639 ], [ -77.32035, 44.16379 ], [ -77.32378, 44.16448 ], [ -77.32589, 44.16339 ], [ -77.32503, 44.16479 ], [ -77.32949, 44.16814 ], [ -77.3349, 44.16802 ], [ -77.33469, 44.16749 ], [ -77.33598, 44.16722 ], [ -77.33884, 44.16444 ], [ -77.33844, 44.16501 ], [ -77.34158, 44.16446 ], [ -77.34114, 44.16349 ], [ -77.34384, 44.16128 ], [ -77.34356, 44.16227 ], [ -77.34582, 44.16236 ], [ -77.34748, 44.16338 ], [ -77.34615, 44.16396 ], [ -77.34628, 44.16498 ], [ -77.35121, 44.16471 ], [ -77.35682, 44.16153 ], [ -77.36304, 44.16122 ], [ -77.36701, 44.15886 ], [ -77.37065, 44.15833 ], [ -77.37203, 44.15597 ], [ -77.37465, 44.15614 ], [ -77.37412, 44.15361 ], [ -77.37528, 44.15333 ], [ -77.37417, 44.15376 ], [ -77.3749, 44.15495 ], [ -77.37716, 44.15429 ], [ -77.37553, 44.15318 ], [ -77.37658, 44.15309 ], [ -77.37778, 44.15486 ], [ -77.37867, 44.15436 ], [ -77.38224, 44.16008 ], [ -77.3826, 44.15922 ], [ -77.38097, 44.15596 ], [ -77.38252, 44.15697 ], [ -77.383, 44.16 ], [ -77.38495, 44.15994 ], [ -77.38515, 44.15922 ], [ -77.38582, 44.15963 ], [ -77.38557, 44.15849 ], [ -77.38643, 44.15882 ], [ -77.38665, 44.15665 ], [ -77.38596, 44.15728 ], [ -77.38646, 44.1565 ], [ -77.38561, 44.1563 ], [ -77.38518, 44.15467 ], [ -77.38328, 44.15426 ], [ -77.38249, 44.1525 ], [ -77.38711, 44.15166 ], [ -77.38795, 44.15064 ], [ -77.38735, 44.14852 ], [ -77.38858, 44.15048 ], [ -77.39005, 44.15027 ], [ -77.3902, 44.14956 ], [ -77.39247, 44.14958 ], [ -77.39235, 44.15201 ], [ -77.39136, 44.15272 ], [ -77.3925, 44.15335 ], [ -77.39438, 44.15097 ], [ -77.40068, 44.1482 ], [ -77.40075, 44.14726 ], [ -77.40196, 44.14734 ], [ -77.4047, 44.14591 ], [ -77.405, 44.1466 ], [ -77.40563, 44.14637 ], [ -77.40477, 44.14589 ], [ -77.40573, 44.14549 ], [ -77.40844, 44.14549 ], [ -77.41172, 44.14405 ], [ -77.4125, 44.14091 ], [ -77.41629, 44.13932 ], [ -77.42629, 44.13717 ], [ -77.44727, 44.1802 ], [ -77.41186, 44.18907 ], [ -77.47353, 44.31563 ], [ -77.33331, 44.34878 ], [ -77.24902, 44.17662 ], [ -77.25039, 44.17645 ] ] ], [ [ [ -77.25137, 44.1758 ], [ -77.25136, 44.1757 ], [ -77.25137, 44.17572 ], [ -77.25137, 44.1758 ] ] ], [ [ [ -77.24903, 44.17259 ], [ -77.24907, 44.17257 ], [ -77.24918, 44.17255 ], [ -77.24903, 44.17259 ] ] ], [ [ [ -77.24943, 44.17242 ], [ -77.24947, 44.17245 ], [ -77.24937, 44.17241 ], [ -77.24943, 44.17242 ] ] ], [ [ [ -77.25004, 44.17173 ], [ -77.25001, 44.17175 ], [ -77.24993, 44.17179 ], [ -77.25004, 44.17173 ] ] ], [ [ [ -77.25033, 44.17146 ], [ -77.25034, 44.1715 ], [ -77.25031, 44.17153 ], [ -77.25033, 44.17146 ] ] ], [ [ [ -77.25024, 44.17132 ], [ -77.25026, 44.17122 ], [ -77.25058, 44.17123 ], [ -77.25024, 44.17132 ] ] ], [ [ [ -77.25064, 44.17122 ], [ -77.25076, 44.17118 ], [ -77.25072, 44.17121 ], [ -77.25064, 44.17122 ] ] ], [ [ [ -77.24961, 44.17147 ], [ -77.24954, 44.17149 ], [ -77.2495, 44.17143 ], [ -77.24961, 44.17147 ] ] ], [ [ [ -77.39785, 44.14918 ], [ -77.39744, 44.14924 ], [ -77.39759, 44.14909 ], [ -77.39785, 44.14918 ] ] ], [ [ [ -77.39697, 44.14961 ], [ -77.39739, 44.14952 ], [ -77.39737, 44.14959 ], [ -77.39697, 44.14961 ] ] ], [ [ [ -77.3966, 44.14975 ], [ -77.39684, 44.14971 ], [ -77.39659, 44.14987 ], [ -77.3966, 44.14975 ] ] ], [ [ [ -77.32075, 44.15321 ], [ -77.32112, 44.15331 ], [ -77.32029, 44.15389 ], [ -77.32075, 44.15321 ] ] ], [ [ [ -77.32974, 44.15458 ], [ -77.32996, 44.15463 ], [ -77.32975, 44.15495 ], [ -77.32974, 44.15458 ] ] ], [ [ [ -77.31549, 44.156 ], [ -77.31551, 44.15581 ], [ -77.31575, 44.15584 ], [ -77.31549, 44.156 ] ] ], [ [ [ -77.26301, 44.1741 ], [ -77.26331, 44.17429 ], [ -77.26263, 44.17447 ], [ -77.26301, 44.1741 ] ] ], [ [ [ -77.26291, 44.17465 ], [ -77.26307, 44.1747 ], [ -77.26302, 44.1748 ], [ -77.26291, 44.17465 ] ] ], [ [ [ -77.26112, 44.17473 ], [ -77.2614, 44.17476 ], [ -77.26095, 44.17479 ], [ -77.26112, 44.17473 ] ] ], [ [ [ -77.26331, 44.17635 ], [ -77.26335, 44.17594 ], [ -77.2637, 44.17603 ], [ -77.26331, 44.17635 ] ] ] ] } },
{ "type": "Feature", "properties": { "fid": 84, "ASSESSMENT": "1514", "MUNICIPALITY": "CITY OF PETERBOROUGH", "TIER": "ST", "UT_NUMBER": "66", "UT_ID": "1500", "UT_Name": "Peterborough Co", "Separated": 1.0, "Geographic_County": "County of Peterborough" }, "geometry": { "type": "Polygon", "coordinates": [ [ [ -78.28367, 44.37849 ], [ -78.26833, 44.3458 ], [ -78.2957, 44.33919 ], [ -78.30342, 44.33 ], [ -78.30429, 44.32143 ], [ -78.30383, 44.31989 ], [ -78.29315, 44.32242 ], [ -78.28233, 44.29976 ], [ -78.27466, 44.30169 ], [ -78.2733, 44.29916 ], [ -78.27303, 44.29642 ], [ -78.2769, 44.2955 ], [ -78.27643, 44.29422 ], [ -78.2787, 44.29194 ], [ -78.27741, 44.28931 ], [ -78.28306, 44.28797 ], [ -78.28558, 44.28568 ], [ -78.28246, 44.27903 ], [ -78.29121, 44.27693 ], [ -78.28997, 44.27433 ], [ -78.30571, 44.27074 ], [ -78.30328, 44.26551 ], [ -78.30998, 44.26385 ], [ -78.31378, 44.25802 ], [ -78.323, 44.25567 ], [ -78.32396, 44.25456 ], [ -78.33185, 44.25273 ], [ -78.33469, 44.25929 ], [ -78.32816, 44.26545 ], [ -78.34208, 44.26182 ], [ -78.34277, 44.26328 ], [ -78.35023, 44.26148 ], [ -78.35432, 44.25335 ], [ -78.3573, 44.25263 ], [ -78.3592, 44.25686 ], [ -78.36083, 44.25641 ], [ -78.35931, 44.25308 ], [ -78.36111, 44.25265 ], [ -78.36731, 44.26367 ], [ -78.37446, 44.26194 ], [ -78.37622, 44.26548 ], [ -78.37894, 44.26559 ], [ -78.37865, 44.26694 ], [ -78.37716, 44.2667 ], [ -78.37705, 44.26725 ], [ -78.37855, 44.26748 ], [ -78.37732, 44.26989 ], [ -78.38177, 44.2803 ], [ -78.37547, 44.28173 ], [ -78.38807, 44.30915 ], [ -78.37217, 44.31084 ], [ -78.36946, 44.30999 ], [ -78.36684, 44.30756 ], [ -78.37146, 44.31712 ], [ -78.35158, 44.32202 ], [ -78.35277, 44.32319 ], [ -78.3513, 44.32392 ], [ -78.35739, 44.32982 ], [ -78.31332, 44.3524 ], [ -78.30003, 44.35817 ], [ -78.30405, 44.367 ], [ -78.29705, 44.3687 ], [ -78.29558, 44.36547 ], [ -78.29453, 44.36733 ], [ -78.29526, 44.36763 ], [ -78.29449, 44.36738 ], [ -78.2938, 44.36951 ], [ -78.29114, 44.37254 ], [ -78.29053, 44.37108 ], [ -78.28885, 44.37337 ], [ -78.28697, 44.37389 ], [ -78.28367, 44.37849 ] ] ] } },
{ "type": "Feature", "properties": { "fid": 126, "ASSESSMENT": "2308", "MUNICIPALITY": "CITY OF GUELPH", "TIER": "ST", "UT_NUMBER": "75", "UT_ID": "2300", "UT_Name": "Wellington Co", "Separated": 1.0, "Geographic_County": "County of Wellington" }, "geometry": { "type": "Polygon", "coordinates": [ [ [ -80.19611, 43.55909 ], [ -80.18771, 43.55301 ], [ -80.18854, 43.55241 ], [ -80.18567, 43.55033 ], [ -80.20337, 43.53715 ], [ -80.1535, 43.50052 ], [ -80.18915, 43.47382 ], [ -80.20134, 43.48262 ], [ -80.22694, 43.47835 ], [ -80.23339, 43.49608 ], [ -80.24361, 43.49459 ], [ -80.24632, 43.50052 ], [ -80.25349, 43.49984 ], [ -80.25498, 43.50678 ], [ -80.26127, 43.51464 ], [ -80.26396, 43.51647 ], [ -80.26427, 43.52129 ], [ -80.26267, 43.5233 ], [ -80.26758, 43.5193 ], [ -80.26865, 43.51924 ], [ -80.26951, 43.51668 ], [ -80.27116, 43.51653 ], [ -80.2728, 43.51235 ], [ -80.27456, 43.51361 ], [ -80.27742, 43.51154 ], [ -80.2953, 43.52457 ], [ -80.30725, 43.52002 ], [ -80.32691, 43.53452 ], [ -80.31787, 43.541 ], [ -80.3196, 43.54226 ], [ -80.30174, 43.55537 ], [ -80.30361, 43.55673 ], [ -80.29449, 43.56344 ], [ -80.2885, 43.5624 ], [ -80.27915, 43.56923 ], [ -80.27838, 43.56709 ], [ -80.27259, 43.57228 ], [ -80.27493, 43.57384 ], [ -80.27578, 43.57608 ], [ -80.27435, 43.57819 ], [ -80.27441, 43.58225 ], [ -80.27574, 43.58326 ], [ -80.27533, 43.58611 ], [ -80.2731, 43.59094 ], [ -80.26849, 43.59435 ], [ -80.24409, 43.57676 ], [ -80.23341, 43.5846 ], [ -80.22857, 43.58113 ], [ -80.2249, 43.5837 ], [ -80.19501, 43.56244 ], [ -80.19696, 43.56097 ], [ -80.19522, 43.55974 ], [ -80.19611, 43.55909 ] ] ] } },
{ "type": "Feature", "properties": { "fid": 165, "ASSESSMENT": "3111", "MUNICIPALITY": "CITY OF STRATFORD", "TIER": "ST", "UT_NUMBER": "65", "UT_ID": "3100", "UT_Name": "Perth Co", "Separated": 1.0, "Geographic_County": "County of Perth" }, "geometry": { "type": "Polygon", "coordinates": [ [ [ -80.95298, 43.34973 ], [ -80.99155, 43.35049 ], [ -80.98844, 43.34906 ], [ -80.99101, 43.34603 ], [ -80.99749, 43.34894 ], [ -81.0008, 43.34503 ], [ -81.00004, 43.34369 ], [ -81.00109, 43.34245 ], [ -80.99944, 43.34171 ], [ -81.00302, 43.3374 ], [ -81.00961, 43.34033 ], [ -81.01519, 43.3334 ], [ -81.01679, 43.33412 ], [ -81.0177, 43.33304 ], [ -81.02938, 43.3383 ], [ -81.0194, 43.34477 ], [ -81.02628, 43.34802 ], [ -81.01321, 43.36344 ], [ -81.01802, 43.36555 ], [ -81.01086, 43.37343 ], [ -81.01515, 43.37535 ], [ -81.00839, 43.38328 ], [ -81.01269, 43.38521 ], [ -80.99958, 43.40071 ], [ -80.97279, 43.38889 ], [ -80.97138, 43.39058 ], [ -80.97228, 43.39099 ], [ -80.96718, 43.39726 ], [ -80.96342, 43.39558 ], [ -80.96381, 43.39393 ], [ -80.95305, 43.39378 ], [ -80.95295, 43.38926 ], [ -80.94554, 43.38915 ], [ -80.94545, 43.37608 ], [ -80.94302, 43.37608 ], [ -80.94304, 43.3743 ], [ -80.93802, 43.37424 ], [ -80.93791, 43.36652 ], [ -80.95287, 43.36417 ], [ -80.95278, 43.3617 ], [ -80.95511, 43.36173 ], [ -80.95325, 43.36068 ], [ -80.95298, 43.34973 ] ] ] } },
{ "type": "Feature", "properties": { "fid": 166, "ASSESSMENT": "3116", "MUNICIPALITY": "TOWN OF ST. MARYS", "TIER": "ST", "UT_NUMBER": "65", "UT_ID": "3100", "UT_Name": "Perth Co", "Separated": 1.0, "Geographic_County": "County of Perth" }, "geometry": { "type": "Polygon", "coordinates": [ [ [ -81.12554, 43.26619 ], [ -81.11319, 43.26775 ], [ -81.1115, 43.26 ], [ -81.12394, 43.25863 ], [ -81.12087, 43.24423 ], [ -81.12821, 43.2434 ], [ -81.12709, 43.23766 ], [ -81.15775, 43.23474 ], [ -81.16177, 43.25382 ], [ -81.16671, 43.25328 ], [ -81.16841, 43.26144 ], [ -81.16343, 43.26197 ], [ -81.16486, 43.26922 ], [ -81.12705, 43.27333 ], [ -81.12554, 43.26619 ] ] ] } },
{ "type": "Feature", "properties": { "fid": 185, "ASSESSMENT": "3421", "MUNICIPALITY": "CITY OF ST. THOMAS", "TIER": "ST", "UT_NUMBER": "44", "UT_ID": "3400", "UT_Name": "Elgin Co", "Separated": 1.0, "Geographic_County": "County of Elgin" }, "geometry": { "type": "Polygon", "coordinates": [ [ [ -81.21107, 42.74735 ], [ -81.21888, 42.74826 ], [ -81.21862, 42.75565 ], [ -81.21674, 42.75784 ], [ -81.22487, 42.76427 ], [ -81.21665, 42.76851 ], [ -81.24051, 42.78707 ], [ -81.23028, 42.7912 ], [ -81.23592, 42.7941 ], [ -81.22162, 42.79483 ], [ -81.21908, 42.79579 ], [ -81.21865, 42.795 ], [ -81.21623, 42.79501 ], [ -81.21433, 42.79356 ], [ -81.21498, 42.79311 ], [ -81.21442, 42.79216 ], [ -81.21031, 42.79037 ], [ -81.21036, 42.78783 ], [ -81.2139, 42.78336 ], [ -81.21027, 42.78047 ], [ -81.2058, 42.78056 ], [ -81.20556, 42.78188 ], [ -81.20402, 42.78169 ], [ -81.20641, 42.78433 ], [ -81.2046, 42.78399 ], [ -81.20148, 42.78468 ], [ -81.19894, 42.78641 ], [ -81.19447, 42.78677 ], [ -81.19553, 42.78805 ], [ -81.1932, 42.78818 ], [ -81.19121, 42.79166 ], [ -81.18673, 42.79161 ], [ -81.18965, 42.79477 ], [ -81.19015, 42.79894 ], [ -81.18771, 42.79767 ], [ -81.1877, 42.79969 ], [ -81.17253, 42.79936 ], [ -81.17268, 42.81152 ], [ -81.17044, 42.81146 ], [ -81.17061, 42.81279 ], [ -81.16563, 42.81133 ], [ -81.12034, 42.81033 ], [ -81.12031, 42.79178 ], [ -81.12118, 42.78433 ], [ -81.14662, 42.78417 ], [ -81.14669, 42.77801 ], [ -81.15049, 42.77818 ], [ -81.15049, 42.77734 ], [ -81.14775, 42.777 ], [ -81.14706, 42.77444 ], [ -81.15036, 42.77451 ], [ -81.15109, 42.76801 ], [ -81.15414, 42.7681 ], [ -81.15424, 42.76708 ], [ -81.15571, 42.76711 ], [ -81.15588, 42.7634 ], [ -81.1477, 42.76325 ], [ -81.1478, 42.74847 ], [ -81.17271, 42.74929 ], [ -81.17293, 42.74227 ], [ -81.18554, 42.7425 ], [ -81.18522, 42.74957 ], [ -81.17978, 42.74944 ], [ -81.17975, 42.75328 ], [ -81.18613, 42.75341 ], [ -81.18608, 42.75436 ], [ -81.19408, 42.75452 ], [ -81.19431, 42.75519 ], [ -81.1956, 42.755 ], [ -81.19556, 42.7499 ], [ -81.2109, 42.75025 ], [ -81.21107, 42.74735 ] ] ] } },
{ "type": "Feature", "properties": { "fid": 191, "ASSESSMENT": "3701", "MUNICIPALITY": "TOWNSHIP OF PELEE", "TIER": "ST", "UT_NUMBER": "45", "UT_ID": "3700", "UT_Name": "Essex Co", "Separated": 1.0, "Geographic_County": "County of Essex" }, "geometry": { "type": "Polygon", "coordinates": [ [ [ -82.63922, 41.83194 ], [ -82.63381, 41.82395 ], [ -82.6333, 41.81626 ], [ -82.63065, 41.80553 ], [ -82.62646, 41.79887 ], [ -82.63067, 41.79206 ], [ -82.63106, 41.77999 ], [ -82.62842, 41.7691 ], [ -82.62496, 41.76281 ], [ -82.62057, 41.7507 ], [ -82.62263, 41.74873 ], [ -82.6263, 41.74709 ], [ -82.63359, 41.74502 ], [ -82.63849, 41.74271 ], [ -82.64288, 41.74224 ], [ -82.64568, 41.74284 ], [ -82.64549, 41.74404 ], [ -82.6459, 41.74314 ], [ -82.65058, 41.74557 ], [ -82.65895, 41.74306 ], [ -82.66317, 41.73954 ], [ -82.66393, 41.73719 ], [ -82.66576, 41.73538 ], [ -82.66889, 41.73371 ], [ -82.67201, 41.72442 ], [ -82.67619, 41.73426 ], [ -82.67884, 41.73666 ], [ -82.68241, 41.73747 ], [ -82.68442, 41.74102 ], [ -82.68899, 41.75585 ], [ -82.68941, 41.76317 ], [ -82.69173, 41.76357 ], [ -82.68945, 41.76355 ], [ -82.68918, 41.76473 ], [ -82.68946, 41.76921 ], [ -82.68458, 41.80454 ], [ -82.68523, 41.81102 ], [ -82.68772, 41.81301 ], [ -82.68577, 41.8156 ], [ -82.68358, 41.81601 ], [ -82.68063, 41.81476 ], [ -82.6782, 41.81165 ], [ -82.67393, 41.80938 ], [ -82.67004, 41.80903 ], [ -82.66455, 41.80968 ], [ -82.65916, 41.81215 ], [ -82.66005, 41.81337 ], [ -82.65994, 41.81419 ], [ -82.65864, 41.81215 ], [ -82.6575, 41.8125 ], [ -82.65894, 41.81356 ], [ -82.65707, 41.81246 ], [ -82.65434, 41.814 ], [ -82.64859, 41.81852 ], [ -82.64738, 41.821 ], [ -82.64608, 41.82096 ], [ -82.6433, 41.82498 ], [ -82.64417, 41.82265 ], [ -82.64326, 41.82202 ], [ -82.64459, 41.82264 ], [ -82.64414, 41.82164 ], [ -82.64501, 41.82201 ], [ -82.64565, 41.82081 ], [ -82.64209, 41.82164 ], [ -82.64004, 41.8213 ], [ -82.64133, 41.82165 ], [ -82.64075, 41.82184 ], [ -82.63395, 41.81969 ], [ -82.6343, 41.82236 ], [ -82.63464, 41.82197 ], [ -82.63889, 41.8306 ], [ -82.64069, 41.82812 ], [ -82.63884, 41.83076 ], [ -82.63684, 41.82734 ], [ -82.63884, 41.83097 ], [ -82.64001, 41.8296 ], [ -82.63921, 41.83163 ], [ -82.64019, 41.83099 ], [ -82.63922, 41.83194 ] ] ] } },
{ "type": "Feature", "properties": { "fid": 196, "ASSESSMENT": "3739", "MUNICIPALITY": "CITY OF WINDSOR", "TIER": "ST", "UT_NUMBER": "45", "UT_ID": "3700", "UT_Name": "Essex Co", "Separated": 1.0, "Geographic_County": "County of Essex" }, "geometry": { "type": "MultiPolygon", "coordinates": [ [ [ [ -82.89672, 42.33562 ], [ -82.89114, 42.31279 ], [ -82.89787, 42.31348 ], [ -82.89505, 42.30354 ], [ -82.89626, 42.30231 ], [ -82.89808, 42.29711 ], [ -82.89594, 42.28835 ], [ -82.9004, 42.28843 ], [ -82.89774, 42.27571 ], [ -82.90484, 42.27447 ], [ -82.90359, 42.27234 ], [ -82.90575, 42.24204 ], [ -82.93551, 42.24288 ], [ -82.9555, 42.24918 ], [ -82.95909, 42.24922 ], [ -82.96126, 42.25192 ], [ -82.96094, 42.24734 ], [ -82.97054, 42.24472 ], [ -82.98679, 42.23416 ], [ -82.99042, 42.23442 ], [ -82.9971, 42.23595 ], [ -83.03208, 42.24894 ], [ -83.03522, 42.25203 ], [ -83.06001, 42.25286 ], [ -83.07068, 42.25547 ], [ -83.07111, 42.25018 ], [ -83.07634, 42.25278 ], [ -83.07671, 42.24633 ], [ -83.10621, 42.25375 ], [ -83.10658, 42.25622 ], [ -83.10867, 42.25719 ], [ -83.10576, 42.25765 ], [ -83.10657, 42.25833 ], [ -83.10712, 42.25786 ], [ -83.10679, 42.25878 ], [ -83.10509, 42.25842 ], [ -83.10647, 42.2597 ], [ -83.10262, 42.26535 ], [ -83.10316, 42.26623 ], [ -83.10182, 42.26832 ], [ -83.10249, 42.26861 ], [ -83.10192, 42.27 ], [ -83.1006, 42.27025 ], [ -83.09353, 42.26856 ], [ -83.09396, 42.26929 ], [ -83.1014, 42.27103 ], [ -83.09936, 42.27326 ], [ -83.09666, 42.27919 ], [ -83.09679, 42.27987 ], [ -83.09737, 42.2792 ], [ -83.09653, 42.28068 ], [ -83.09644, 42.27991 ], [ -83.09538, 42.28084 ], [ -83.09421, 42.2833 ], [ -83.09521, 42.28356 ], [ -83.09181, 42.28989 ], [ -83.09084, 42.29028 ], [ -83.08598, 42.2883 ], [ -83.09092, 42.29081 ], [ -83.08988, 42.29162 ], [ -83.09051, 42.29194 ], [ -83.08977, 42.29307 ], [ -83.08606, 42.29595 ], [ -83.08231, 42.29489 ], [ -83.08567, 42.2967 ], [ -83.08244, 42.30005 ], [ -83.07958, 42.29932 ], [ -83.08231, 42.30042 ], [ -83.08125, 42.30142 ], [ -83.07877, 42.30088 ], [ -83.08049, 42.3023 ], [ -83.07829, 42.30202 ], [ -83.08005, 42.30279 ], [ -83.0797, 42.30337 ], [ -83.07847, 42.30312 ], [ -83.078, 42.30395 ], [ -83.07877, 42.30399 ], [ -83.07885, 42.30401 ], [ -83.07887, 42.30411 ], [ -83.07792, 42.30561 ], [ -83.07521, 42.30669 ], [ -83.07479, 42.30815 ], [ -83.07215, 42.30955 ], [ -83.07249, 42.31006 ], [ -83.07183, 42.30962 ], [ -83.05881, 42.31581 ], [ -83.0185, 42.3257 ], [ -83.00736, 42.32746 ], [ -82.98589, 42.32752 ], [ -82.98553, 42.32804 ], [ -82.98414, 42.32785 ], [ -82.98434, 42.32859 ], [ -82.97832, 42.32979 ], [ -82.97231, 42.3322 ], [ -82.96577, 42.33301 ], [ -82.96496, 42.33251 ], [ -82.95603, 42.33305 ], [ -82.95311, 42.3356 ], [ -82.95256, 42.33508 ], [ -82.95297, 42.33576 ], [ -82.95138, 42.33655 ], [ -82.94843, 42.34166 ], [ -82.94273, 42.34192 ], [ -82.93991, 42.34299 ], [ -82.93586, 42.34247 ], [ -82.9345, 42.34183 ], [ -82.93428, 42.34069 ], [ -82.93349, 42.34158 ], [ -82.93351, 42.34043 ], [ -82.93297, 42.34117 ], [ -82.93211, 42.34101 ], [ -82.9328, 42.34064 ], [ -82.93192, 42.33963 ], [ -82.93115, 42.3408 ], [ -82.93054, 42.33893 ], [ -82.9277, 42.33948 ], [ -82.93063, 42.34072 ], [ -82.92692, 42.33927 ], [ -82.92103, 42.33994 ], [ -82.91905, 42.33845 ], [ -82.91356, 42.33666 ], [ -82.90158, 42.33467 ], [ -82.89748, 42.3348 ], [ -82.8977, 42.3356 ], [ -82.89672, 42.33562 ] ] ], [ [ [ -83.10929, 42.25632 ], [ -83.10922, 42.25635 ], [ -83.10925, 42.25631 ], [ -83.10929, 42.25632 ] ] ], [ [ [ -83.10777, 42.25836 ], [ -83.1077, 42.25838 ], [ -83.10773, 42.25834 ], [ -83.10777, 42.25836 ] ] ], [ [ [ -83.10559, 42.26254 ], [ -83.10551, 42.26259 ], [ -83.10554, 42.26253 ], [ -83.10559, 42.26254 ] ] ], [ [ [ -83.10516, 42.26346 ], [ -83.10507, 42.26351 ], [ -83.1051, 42.26346 ], [ -83.10516, 42.26346 ] ] ], [ [ [ -83.10464, 42.26454 ], [ -83.10455, 42.26457 ], [ -83.10457, 42.26452 ], [ -83.10464, 42.26454 ] ] ], [ [ [ -83.10453, 42.26476 ], [ -83.10444, 42.2648 ], [ -83.10446, 42.26475 ], [ -83.10453, 42.26476 ] ] ], [ [ [ -83.10441, 42.26495 ], [ -83.10435, 42.26499 ], [ -83.10437, 42.26494 ], [ -83.10441, 42.26495 ] ] ], [ [ [ -83.10426, 42.26517 ], [ -83.10433, 42.26515 ], [ -83.10432, 42.26518 ], [ -83.10426, 42.26517 ] ] ], [ [ [ -83.10417, 42.26536 ], [ -83.10425, 42.26533 ], [ -83.10423, 42.26536 ], [ -83.10417, 42.26536 ] ] ], [ [ [ -83.104, 42.26586 ], [ -83.10392, 42.26588 ], [ -83.10394, 42.26585 ], [ -83.104, 42.26586 ] ] ], [ [ [ -83.08868, 42.29429 ], [ -83.08855, 42.29431 ], [ -83.08861, 42.29425 ], [ -83.08868, 42.29429 ] ] ], [ [ [ -83.08779, 42.29504 ], [ -83.08784, 42.29518 ], [ -83.08773, 42.29516 ], [ -83.08779, 42.29504 ] ] ], [ [ [ -82.92482, 42.3443 ], [ -82.92468, 42.34408 ], [ -82.92511, 42.3442 ], [ -82.92482, 42.3443 ] ] ], [ [ [ -82.92622, 42.3446 ], [ -82.92723, 42.34447 ], [ -82.92732, 42.34453 ], [ -82.92622, 42.3446 ] ] ], [ [ [ -82.92656, 42.34516 ], [ -82.92621, 42.34513 ], [ -82.92669, 42.3451 ], [ -82.92656, 42.34516 ] ] ], [ [ [ -82.92542, 42.34541 ], [ -82.92565, 42.34498 ], [ -82.92596, 42.34518 ], [ -82.92542, 42.34541 ] ] ], [ [ [ -82.92066, 42.34545 ], [ -82.92406, 42.34312 ], [ -82.9278, 42.34276 ], [ -82.92732, 42.34415 ], [ -82.92639, 42.3442 ], [ -82.92688, 42.34337 ], [ -82.92575, 42.34412 ], [ -82.92459, 42.34385 ], [ -82.9242, 42.34435 ], [ -82.92555, 42.34458 ], [ -82.9238, 42.34501 ], [ -82.92345, 42.34374 ], [ -82.922, 42.34488 ], [ -82.92688, 42.34674 ], [ -82.92556, 42.34686 ], [ -82.92638, 42.34739 ], [ -82.92718, 42.34679 ], [ -82.92447, 42.34532 ], [ -82.92803, 42.3467 ], [ -82.93346, 42.34652 ], [ -82.93354, 42.34621 ], [ -82.9374, 42.34687 ], [ -82.93828, 42.34669 ], [ -82.93124, 42.34565 ], [ -82.93088, 42.3458 ], [ -82.92984, 42.3452 ], [ -82.93863, 42.34661 ], [ -82.93711, 42.34704 ], [ -82.9323, 42.34662 ], [ -82.92912, 42.34711 ], [ -82.92494, 42.34905 ], [ -82.92116, 42.3467 ], [ -82.92066, 42.34545 ] ] ], [ [ [ -82.9301, 42.34653 ], [ -82.92808, 42.34645 ], [ -82.9265, 42.34547 ], [ -82.92842, 42.34622 ], [ -82.9301, 42.34653 ] ] ], [ [ [ -82.93139, 42.34635 ], [ -82.93299, 42.34604 ], [ -82.93316, 42.34621 ], [ -82.93139, 42.34635 ] ] ] ] } },
{ "type": "Feature", "properties": { "fid": 217, "ASSESSMENT": "3936", "MUNICIPALITY": "CITY OF LONDON", "TIER": "ST", "UT_NUMBER": "59", "UT_ID": "3900", "UT_Name": "Middlesex Co", "Separated": 1.0, "Geographic_County": "County of Middlesex" }, "geometry": { "type": "Polygon", "coordinates": [ [ [ -81.18819, 43.06691 ], [ -81.1788, 43.05888 ], [ -81.16883, 43.05455 ], [ -81.16612, 43.04913 ], [ -81.15032, 43.05372 ], [ -81.14774, 43.04854 ], [ -81.13198, 43.05331 ], [ -81.12673, 43.04272 ], [ -81.13458, 43.04031 ], [ -81.1263, 43.0236 ], [ -81.12986, 43.02258 ], [ -81.12843, 43.01945 ], [ -81.12926, 43.01894 ], [ -81.12891, 43.01813 ], [ -81.12713, 43.01867 ], [ -81.12022, 43.00532 ], [ -81.11531, 43.00369 ], [ -81.11439, 43.002 ], [ -81.12481, 42.9988 ], [ -81.12176, 42.99288 ], [ -81.12942, 42.99058 ], [ -81.12896, 42.98736 ], [ -81.13071, 42.98554 ], [ -81.12937, 42.98588 ], [ -81.13056, 42.98412 ], [ -81.13029, 42.98271 ], [ -81.13139, 42.9821 ], [ -81.12991, 42.97815 ], [ -81.1265, 42.97985 ], [ -81.12445, 42.97939 ], [ -81.12417, 42.97739 ], [ -81.12258, 42.97716 ], [ -81.11661, 42.9532 ], [ -81.11551, 42.95328 ], [ -81.11086, 42.9351 ], [ -81.10853, 42.93532 ], [ -81.10708, 42.92953 ], [ -81.11641, 42.92865 ], [ -81.11489, 42.92277 ], [ -81.12677, 42.92163 ], [ -81.12522, 42.91547 ], [ -81.12614, 42.91538 ], [ -81.1148, 42.87062 ], [ -81.30063, 42.82452 ], [ -81.30131, 42.82612 ], [ -81.29054, 42.83441 ], [ -81.27929, 42.84765 ], [ -81.2857, 42.84605 ], [ -81.29789, 42.87474 ], [ -81.30362, 42.87337 ], [ -81.3051, 42.87689 ], [ -81.29939, 42.87831 ], [ -81.30087, 42.88177 ], [ -81.31275, 42.87889 ], [ -81.31319, 42.8799 ], [ -81.33064, 42.87624 ], [ -81.33248, 42.88009 ], [ -81.33574, 42.87929 ], [ -81.34843, 42.9085 ], [ -81.34468, 42.90939 ], [ -81.34742, 42.91565 ], [ -81.35402, 42.91522 ], [ -81.3549, 42.91694 ], [ -81.35857, 42.91659 ], [ -81.35931, 42.91861 ], [ -81.35689, 42.91919 ], [ -81.35921, 42.92553 ], [ -81.37241, 42.92244 ], [ -81.38189, 42.94308 ], [ -81.38065, 42.94332 ], [ -81.38451, 42.9518 ], [ -81.38921, 42.95428 ], [ -81.38795, 42.95808 ], [ -81.39052, 42.96245 ], [ -81.39011, 42.96401 ], [ -81.38918, 42.96508 ], [ -81.38513, 42.96679 ], [ -81.38306, 42.96892 ], [ -81.37653, 42.97128 ], [ -81.37, 42.97858 ], [ -81.36612, 42.98143 ], [ -81.36113, 42.98298 ], [ -81.35804, 42.98534 ], [ -81.3532, 42.9868 ], [ -81.3503, 42.98592 ], [ -81.34742, 42.98179 ], [ -81.35885, 43.00442 ], [ -81.36202, 43.0102 ], [ -81.36294, 43.00993 ], [ -81.36914, 43.02186 ], [ -81.19374, 43.07305 ], [ -81.18819, 43.06691 ] ] ] } },
{ "type": "Feature", "properties": { "fid": 260, "ASSESSMENT": "4342", "MUNICIPALITY": "CITY OF BARRIE", "TIER": "ST", "UT_NUMBER": "70", "UT_ID": "4300", "UT_Name": "Simcoe Co", "Separated": 1.0, "Geographic_County": "County of Simcoe" }, "geometry": { "type": "MultiPolygon", "coordinates": [ [ [ [ -79.66841, 44.4449 ], [ -79.65261, 44.42816 ], [ -79.65278, 44.42557 ], [ -79.65645, 44.42016 ], [ -79.65559, 44.41961 ], [ -79.65205, 44.42474 ], [ -79.64948, 44.42677 ], [ -79.64924, 44.42913 ], [ -79.64757, 44.43166 ], [ -79.64316, 44.43467 ], [ -79.64205, 44.4338 ], [ -79.64441, 44.42276 ], [ -79.61883, 44.42028 ], [ -79.62166, 44.40551 ], [ -79.63456, 44.4066 ], [ -79.63585, 44.39926 ], [ -79.63831, 44.39946 ], [ -79.63875, 44.39663 ], [ -79.64567, 44.39742 ], [ -79.6461, 44.39685 ], [ -79.64945, 44.39716 ], [ -79.65032, 44.39245 ], [ -79.66485, 44.39358 ], [ -79.67769, 44.38935 ], [ -79.68463, 44.38879 ], [ -79.68765, 44.38708 ], [ -79.68874, 44.38767 ], [ -79.6882, 44.38705 ], [ -79.68825, 44.38692 ], [ -79.68888, 44.38763 ], [ -79.68924, 44.38374 ], [ -79.6898, 44.38636 ], [ -79.69031, 44.38297 ], [ -79.68872, 44.38289 ], [ -79.68825, 44.38409 ], [ -79.68922, 44.38073 ], [ -79.68873, 44.37899 ], [ -79.68784, 44.37887 ], [ -79.68883, 44.37851 ], [ -79.68776, 44.37488 ], [ -79.68627, 44.37391 ], [ -79.67649, 44.37425 ], [ -79.67018, 44.37455 ], [ -79.66801, 44.37657 ], [ -79.65746, 44.37515 ], [ -79.6513, 44.37632 ], [ -79.64359, 44.37471 ], [ -79.64087, 44.37332 ], [ -79.63985, 44.3718 ], [ -79.63861, 44.37197 ], [ -79.63875, 44.37108 ], [ -79.63237, 44.37013 ], [ -79.63278, 44.36956 ], [ -79.62651, 44.37082 ], [ -79.62485, 44.37212 ], [ -79.62355, 44.37166 ], [ -79.62286, 44.369 ], [ -79.622, 44.36919 ], [ -79.62042, 44.36316 ], [ -79.59067, 44.36981 ], [ -79.5891, 44.36374 ], [ -79.59053, 44.36341 ], [ -79.58591, 44.34532 ], [ -79.65929, 44.32859 ], [ -79.65443, 44.31011 ], [ -79.72795, 44.29368 ], [ -79.74562, 44.3621 ], [ -79.73276, 44.36503 ], [ -79.73492, 44.36754 ], [ -79.73575, 44.36716 ], [ -79.73648, 44.36798 ], [ -79.73568, 44.36937 ], [ -79.73724, 44.37108 ], [ -79.73787, 44.3709 ], [ -79.7381, 44.37216 ], [ -79.73884, 44.37195 ], [ -79.73917, 44.37327 ], [ -79.7404, 44.374 ], [ -79.74132, 44.37356 ], [ -79.74214, 44.37535 ], [ -79.74086, 44.37593 ], [ -79.74491, 44.38063 ], [ -79.74824, 44.37923 ], [ -79.74817, 44.3812 ], [ -79.75099, 44.38104 ], [ -79.75054, 44.38478 ], [ -79.74906, 44.38544 ], [ -79.7567, 44.39403 ], [ -79.75585, 44.39443 ], [ -79.75851, 44.39744 ], [ -79.74421, 44.40364 ], [ -79.74629, 44.40607 ], [ -79.739, 44.4097 ], [ -79.72404, 44.41635 ], [ -79.72228, 44.41432 ], [ -79.69967, 44.42437 ], [ -79.70655, 44.43165 ], [ -79.70064, 44.43426 ], [ -79.69753, 44.43148 ], [ -79.68474, 44.4376 ], [ -79.68359, 44.43626 ], [ -79.67998, 44.43671 ], [ -79.67845, 44.43738 ], [ -79.6802, 44.43976 ], [ -79.66841, 44.4449 ] ] ], [ [ [ -79.65621, 44.44991 ], [ -79.64424, 44.43597 ], [ -79.64623, 44.43514 ], [ -79.65035, 44.42968 ], [ -79.65727, 44.43371 ], [ -79.66743, 44.44533 ], [ -79.65621, 44.44991 ] ] ] ] } },
{ "type": "Feature", "properties": { "fid": 264, "ASSESSMENT": "4352", "MUNICIPALITY": "CITY OF ORILLIA", "TIER": "ST", "UT_NUMBER": "70", "UT_ID": "4300", "UT_Name": "Simcoe Co", "Separated": 1.0, "Geographic_County": "County of Simcoe" }, "geometry": { "type": "Polygon", "coordinates": [ [ [ -79.41645, 44.63883 ], [ -79.41334, 44.63893 ], [ -79.4105, 44.63392 ], [ -79.41333, 44.62923 ], [ -79.41449, 44.6248 ], [ -79.41326, 44.61756 ], [ -79.41218, 44.61604 ], [ -79.41386, 44.61503 ], [ -79.41311, 44.6121 ], [ -79.41201, 44.61151 ], [ -79.41263, 44.61117 ], [ -79.40784, 44.60895 ], [ -79.4064, 44.60962 ], [ -79.40591, 44.61094 ], [ -79.40463, 44.61113 ], [ -79.40413, 44.61052 ], [ -79.40558, 44.60956 ], [ -79.40543, 44.60843 ], [ -79.40402, 44.60756 ], [ -79.402, 44.6075 ], [ -79.40074, 44.60862 ], [ -79.40107, 44.60938 ], [ -79.39446, 44.61312 ], [ -79.39395, 44.61245 ], [ -79.39521, 44.609 ], [ -79.39397, 44.60861 ], [ -79.39248, 44.60976 ], [ -79.39231, 44.6075 ], [ -79.39052, 44.60687 ], [ -79.38799, 44.60713 ], [ -79.38429, 44.61207 ], [ -79.38352, 44.61185 ], [ -79.38403, 44.61098 ], [ -79.38306, 44.60934 ], [ -79.3811, 44.60911 ], [ -79.37907, 44.60988 ], [ -79.37852, 44.61102 ], [ -79.37997, 44.61221 ], [ -79.37679, 44.61909 ], [ -79.37662, 44.61355 ], [ -79.37485, 44.61245 ], [ -79.3733, 44.61267 ], [ -79.37371, 44.61084 ], [ -79.37213, 44.60784 ], [ -79.37004, 44.60819 ], [ -79.3714, 44.60767 ], [ -79.37012, 44.60714 ], [ -79.37175, 44.60707 ], [ -79.37, 44.60682 ], [ -79.37002, 44.60541 ], [ -79.37172, 44.60572 ], [ -79.37245, 44.60698 ], [ -79.3728, 44.60696 ], [ -79.37234, 44.6057 ], [ -79.37, 44.60514 ], [ -79.37096, 44.60506 ], [ -79.36999, 44.60445 ], [ -79.37132, 44.60079 ], [ -79.37334, 44.60044 ], [ -79.37458, 44.60126 ], [ -79.37452, 44.60395 ], [ -79.3753, 44.60447 ], [ -79.37919, 44.60277 ], [ -79.38003, 44.60633 ], [ -79.38275, 44.60574 ], [ -79.38347, 44.60631 ], [ -79.38621, 44.60548 ], [ -79.38772, 44.59963 ], [ -79.38638, 44.59409 ], [ -79.38279, 44.59326 ], [ -79.38304, 44.59383 ], [ -79.38129, 44.59412 ], [ -79.37985, 44.59242 ], [ -79.38243, 44.58805 ], [ -79.38445, 44.58701 ], [ -79.38792, 44.58833 ], [ -79.39295, 44.58498 ], [ -79.39537, 44.58423 ], [ -79.39446, 44.58597 ], [ -79.38937, 44.59013 ], [ -79.39297, 44.59342 ], [ -79.39781, 44.59446 ], [ -79.39998, 44.59351 ], [ -79.40038, 44.59083 ], [ -79.40286, 44.58909 ], [ -79.40396, 44.58889 ], [ -79.40547, 44.58993 ], [ -79.41051, 44.58908 ], [ -79.41062, 44.58823 ], [ -79.4161, 44.58495 ], [ -79.41955, 44.58142 ], [ -79.41874, 44.58059 ], [ -79.41969, 44.58101 ], [ -79.42057, 44.58045 ], [ -79.42331, 44.57651 ], [ -79.42358, 44.57156 ], [ -79.42169, 44.57007 ], [ -79.4175, 44.57015 ], [ -79.42462, 44.56721 ], [ -79.4346, 44.57903 ], [ -79.44013, 44.57661 ], [ -79.4458, 44.57267 ], [ -79.44704, 44.56999 ], [ -79.47565, 44.60328 ], [ -79.44571, 44.61614 ], [ -79.44982, 44.62097 ], [ -79.44248, 44.62404 ], [ -79.44066, 44.62183 ], [ -79.4188, 44.64774 ], [ -79.42061, 44.63973 ], [ -79.41699, 44.64114 ], [ -79.41645, 44.63883 ] ] ] } },
{ "type": "Feature", "properties": { "fid": 294, "ASSESSMENT": "4764", "MUNICIPALITY": "CITY OF PEMBROKE", "TIER": "ST", "UT_NUMBER": "69", "UT_ID": "4700", "UT_Name": "Renfrew Co", "Separated": 1.0, "Geographic_County": "County of Renfrew" }, "geometry": { "type": "Polygon", "coordinates": [ [ [ -77.07727, 45.82921 ], [ -77.08673, 45.82378 ], [ -77.08161, 45.8205 ], [ -77.09043, 45.81523 ], [ -77.09026, 45.81061 ], [ -77.10911, 45.79895 ], [ -77.09589, 45.78857 ], [ -77.1022, 45.78447 ], [ -77.11012, 45.79063 ], [ -77.12364, 45.79897 ], [ -77.12941, 45.80028 ], [ -77.13426, 45.79968 ], [ -77.14063, 45.80498 ], [ -77.12753, 45.81339 ], [ -77.14375, 45.82615 ], [ -77.15977, 45.83037 ], [ -77.15398, 45.83409 ], [ -77.15659, 45.83621 ], [ -77.13859, 45.84755 ], [ -77.13155, 45.84398 ], [ -77.12162, 45.84148 ], [ -77.10599, 45.83958 ], [ -77.08529, 45.83522 ], [ -77.07727, 45.82921 ] ] ] } }
]
}
